PostalCode,FSA,Latitude,Longitude,Place Name,FSA1,FSA-Province,AreaType
A0A0A0,A0A,48.56745,-54.843225,Gander,A,10,Rural
A0B1A0,A0B,47.760904,-53.983427,Arnolds Cove,A,10,Rural
A0C1A0,A0C,48.346418,-53.964627,Bloomfield,A,10,Rural
A0E1A0,A0E,47.359652,-54.898404,Baine Harbour,A,10,Rural
A0G1A0,A0G,49.453552,-54.104467,Aspen Cove,A,10,Rural
A0H1A0,A0H,49.130114,-56.084515,Badger,A,10,Rural
A0J1A0,A0J,49.595933,-55.673872,Beaumont,A,10,Rural
A0K1A0,A0K,51.232675,-56.79691,Anchor Point,A,10,Rural
A0L0L0,A0L,48.874041,-57.8252,Massey Drive,A,10,Rural
A0M1A0,A0M,48.18162,-58.857956,Burgeo,A,10,Rural
A0N0A2,A0N,48.1675613,-58.6058423,St Georges,A,10,Rural
A0P1A0,A0P,55.888915,-60.880547,Davis Inlet,A,10,Rural
A0R1A0,A0R,53.532852,-64.014524,Churchill Falls,A,10,Rural
A1A0A1,A1A,47.6140568,-52.70796993,St. John's,A,10,Urban
A1B0A1,A1B,47.550575,-52.746072,St. John's,A,10,Urban
A1C0A1,A1C,47.5143913,-52.6565681,,A,10,Urban
A1E0A1,A1E,47.537275,-52.755144,St. John's,A,10,Urban
A1G0A1,A1G,47.490131,-52.798928,St. John's,A,10,Urban
A1H0A1,A1H,47.550575,-52.746072,St. John's,A,10,Urban
A1K0A1,A1K,47.671081,-52.754462,Torbay,A,10,Urban
A1L0A2,A1L,47.54292429,-52.87949604,Paradise,A,10,Urban
A1M0A1,A1M,47.618259,-52.835924,Portugal Cove-St Philips,A,10,Urban
A1N0A1,A1N,47.519571,-52.811343,Mount Pearl,A,10,Urban
A1S0A1,A1S,47.456783,-52.774467,Goulds,A,10,Urban
A1V0A1,A1V,48.95836,-54.60718,Gander,A,10,Urban
A1W0A1,A1W,47.503038,-52.98386,Conception Bay South,A,10,Urban
A1X0A1,A1X,47.4671664,-53.0355324,Conception Bay South,A,10,Urban
A1Y1A1,A1Y,47.723142,-53.23326,Carbonear,A,10,Urban
A2A0A1,A2A,48.94512,-55.668045,Grand Falls-Windsor,A,10,Urban
A2B0A1,A2B,48.928873,-55.651165,Grand Falls-Windsor,A,10,Urban
A2H0A1,A2H,48.934522,-57.940359,Massey Drive,A,10,Urban
A2N0A1,A2N,48.545664,-58.598706,Stephenville,A,10,Urban
A2V0A1,A2V,52.942446,-66.90166,Labrador City,A,10,Urban
A5A0A1,A5A,48.185091,-54.015612,Clarenville,A,10,Urban
A8A0A1,A8A,49.235715,-57.430742,Deer Lake,A,10,Urban
B0A1A0,B0A,46.113095,-59.96457,Birch Grove,B,12,Rural
B0C1A0,B0C,46.281142,-60.28252,Alder Point,B,12,Rural
B0E1A0,B0E,45.514793,-60.966046,Arichat,B,12,Rural
B0H1A0,B0H,45.60221,-61.744775,Afton Station,B,12,Rural
B0J1A0,B0J,45.14583,-61.810819,Bickerton West,B,12,Rural
B0K0A2,B0K,45.574316,-62.656599,Stellarton,B,12,Rural
B0L1A0,B0L,45.580208,-64.664577,Joggins,B,12,Rural
B0M1A0,B0M,45.331725,-64.759555,Advocate Harbour,B,12,Rural
B0N1A0,B0N,44.879392,-63.725383,Beaverbank,B,12,Rural
B0P1A0,B0P,45.019133,-64.888235,Auburn,B,12,Rural
B0R1A0,B0R,44.742361,-65.511122,Barss Corners,B,12,Rural
B0S1A0,B0S,44.74364,-65.51801,Annapolis Royal,B,12,Rural
B0T1A0,B0T,43.702901,-65.111924,Allendale,B,12,Rural
B0V1A0,B0V,44.536344,-65.84642,Digby,B,12,Rural
B0W1A0,B0W,43.818739,-65.951742,Abram River,B,12,Rural
B1A0A1,B1A,46.084252,-60.108202,Glace Bay,B,12,Urban
B1B1A1,B1B,46.13650959,-59.87161617,Port Morien,B,12,Urban
B1C0A1,B1C,45.958365,-59.991704,Louisbourg Road,B,12,Urban
B1E1A1,B1E,46.167278,-60.048057,Dominion,B,12,Urban
B1G1A1,B1G,46.203238,-60.024044,Dominion,B,12,Urban
B1H0A1,B1H,46.251873,-60.072773,New Waterford,B,12,Urban
B1J0A1,B1J,45.90943,-60.479481,Big Pond Centre,B,12,Urban
B1K0A1,B1K,45.89732,-60.193666,Gabarus Lake,B,12,Urban
B1L0A1,B1L,46.041241,-60.260939,Howie Center,B,12,Urban
B1M0A1,B1M,46.088152,-60.109143,Mira Road,B,12,Urban
B1N0A3,B1N,46.1917166,-60.1692134,,B,12,Urban
B1P0A1,B1P,46.110058,-60.200192,Sydney,B,12,Urban
B1R0A1,B1R,46.14088263,-60.21631754,Sydney,B,12,Urban
B1S0A1,B1S,46.112368,-60.211764,Membertou,B,12,Urban
B1T1A1,B1T,46.11349151,-60.23786675,Christmas Island,B,12,Urban
B1V0A1,B1V,46.244155,-60.238698,Sydney Mines,B,12,Urban
B1W1A1,B1W,45.924499,-60.644925,Eskasoni,B,12,Urban
B1X0A1,B1X,46.198194,-60.5969785,,B,12,Urban
B1Y0A1,B1Y,46.22438614,-60.2879219,Little Pond,B,12,Urban
B2A0A1,B2A,46.208086,-60.252219,North Sydney,B,12,Urban
B2C0A1,B2C,45.991691,-60.866341,Barra Glen,B,12,Urban
B2E0A1,B2E,45.7626219,-60.6738808,Loch Lomond,B,12,Urban
B2G0A1,B2G,45.606743,-61.982663,Antigonish,B,12,Urban
B2H0A1,B2H,45.582806,-62.645539,New Glasgow,B,12,Urban
B2J1A1,B2J,45.374659,-63.295087,Fourchu,B,12,Urban
B2N0A1,B2N,45.39132099,-63.21234662,Truro,B,12,Urban
B2R0A1,B2R,44.756084,-63.558649,Waverley,B,12,Urban
B2S0A1,B2S,44.971185,-63.50677,Elmsdale,B,12,Urban
B2T0A1,B2T,44.946515,-63.536107,Enfield,B,12,Urban
B2V0A1,B2V,44.66962,-63.45492,Cole Harbour,B,12,Urban
B2W0A1,B2W,44.683497,-63.544035,Dartmouth,B,12,Urban
B2X0A1,B2X,44.681263,-63.530471,Dartmouth,B,12,Urban
B2Y0A2,B2Y,44.66926136,-63.539389,Dartmouth,B,12,Urban
B2Z0A1,B2Z,44.646677,-63.337592,Lawrencetown,B,12,Urban
B3A0A0,B3A,44.682891,-63.582372,Dartmouth,B,12,Urban
B3B0A1,B3B,44.7109275,-63.5843455,Dartmouth,B,12,Urban
B3E1A1,B3E,44.72114981,-63.3990184,Lake Echo,B,12,Urban
B3G0A1,B3G,44.60865,-63.472566,Eastern Passage,B,12,Urban
B3H0A1,B3H,44.637687,-63.565755,Halifax,B,12,Urban
B3J0A1,B3J,44.645158,-63.570947,Halifax,B,12,Urban
B3K0A1,B3K,44.669418,-63.603499,Halifax,B,12,Urban
B3L0A1,B3L,44.643401,-63.618879,Halifax,B,12,Urban
B3M0A1,B3M,44.699056,-63.66353,Halifax,B,12,Urban
B3N0A1,B3N,44.509289,-63.936658,Halifax,B,12,Urban
B3P0A1,B3P,44.624174,-63.613644,Halifax,B,12,Urban
B3R0A1,B3R,44.50929,-63.936658,Halifax,B,12,Urban
B3S0A1,B3S,44.6537256,-63.66778739,Halifax,B,12,Urban
B3T0A1,B3T,44.562671,-63.731131,Beechville,B,12,Urban
B3V0A1,B3V,44.5181664,-63.62982892,Williamswood,B,12,Urban
B3Z0A1,B3Z,44.66439369,-63.7894763,Hubley,B,12,Urban
B4A0A1,B4A,44.724263,-63.672653,Bedford,B,12,Urban
B4B0A1,B4B,44.734087,-63.800164,Hammonds Plains,B,12,Urban
B4C0A1,B4C,44.771283,-63.653733,Lower Sackville,B,12,Urban
B4E0A1,B4E,44.79003297,-63.70942989,Lower Sackville,B,12,Urban
B4G0A1,B4G,44.854473,-63.717852,Beaver Bank,B,12,Urban
B4H0A1,B4H,45.815117,-64.229657,Amherst,B,12,Urban
B4N0A1,B4N,45.072866,-64.490507,New Minas,B,12,Urban
B4P0A1,B4P,45.085946,-64.358867,Wolfville,B,12,Urban
B4R1A1,B4R,45.06398826,-64.56314524,Coldbrook,B,12,Urban
B4V0A1,B4V,44.38855,-64.52486,Bridgewater,B,12,Urban
B5A0A1,B5A,43.84165624,-66.10017785,Yarmouth,B,12,Urban
B9A1A1,B9A,45.609569,-61.389632,Port Hawkesbury,B,12,Urban
C0A0B0,C0A,46.373006,-62.713618,Cardigan,C,11,Rural
C0B1A0,C0B,46.318197,-63.558561,Albany,C,11,Rural
C1A0A1,C1A,46.242051,-63.147989,Charlottetown,C,11,Urban
C1B0A2,C1B,46.22025,-63.08752,Stratford,C,11,Urban
C1C0A1,C1C,46.291785,-63.112693,Charlottetown,C,11,Urban
C1E0A1,C1E,46.23150543,-63.13222236,Charlottetown,C,11,Urban
C1N0A1,C1N,46.419864,-63.800228,Summerside,C,11,Urban
E0A1A0,E0A,47.033872,-65.509928,Albert,E,13,Rural
E0B1A0,E0B,47.491206,-65.30754,Allardville,E,13,Rural
E0C1A0,E0C,47.03273,-65.0033,Baie-Ste-Anne,E,13,Rural
E0E1A0,E0E,45.796321,-65.268839,Anagance,E,13,Rural
E0G1A0,E0G,45.795085,-65.67263,Apohaqui,E,13,Rural
E0H1A0,E0H,46.488352,-66.442727,Boiestown,E,13,Rural
E0J1A0,E0J,46.728671,-67.706191,Andover,E,13,Rural
E0K1A0,E0K,47.996839,-66.728801,Atholville,E,13,Rural
E0L1A0,E0L,47.310839,-68.500411,Baker Brook,E,13,Rural
E1A0A1,E1A,46.081507,-64.710265,Dieppe,E,13,Urban
E1B0A1,E1B,46.04753,-64.781857,Riverview,E,13,Urban
E1C0A1,E1C,46.103893,-64.813866,Moncton,E,13,Urban
E1E0A1,E1E,46.118118,-64.73117,Moncton,E,13,Urban
E1G0A1,E1G,46.113013,-64.865611,Moncton,E,13,Urban
E1H0A1,E1H,46.0841395,-64.7929535,Moncton,E,13,Urban
E1J0A1,E1J,45.889687,-64.380861,Lower Coverdale,E,13,Urban
E1N0A1,E1N,47.01234,-65.43217,Miramichi,E,13,Urban
E1V0A1,E1V,47.088726,-65.398738,Lower Newcastle,E,13,Urban
E1W0A2,E1W,47.790396,-64.921875,Caraquet,E,13,Urban
E1X0A1,E1X,47.531511,-64.924602,POINTE-BRULE,E,13,Urban
E2A0A1,E2A,47.666706,-65.552541,Salmon Beach,E,13,Urban
E2E0A1,E2E,45.406078,-65.984297,Rothesay,E,13,Urban
E2G0A1,E2G,45.428488,-65.949276,Quispamsis,E,13,Urban
E2H0A1,E2H,45.347868,-66.003668,Rothesay,E,13,Urban
E2J0A1,E2J,45.262091,-65.949392,Saint John,E,13,Urban
E2K0A1,E2K,45.280271,-66.079455,Saint John,E,13,Urban
E2L0A1,E2L,45.2738,-66.066017,Saint John,E,13,Urban
E2M0A1,E2M,45.279609,-66.062807,Saint John,E,13,Urban
E2N0A1,E2N,45.257623,-66.068898,Saint John,E,13,Urban
E2P0A1,E2P,45.279609,-66.062807,Saint John,E,13,Urban
E2R1A2,E2R,45.273857,-66.01568,Saint John,E,13,Urban
E2S0A1,E2S,45.3053968,-65.84534949,Ben Lomond,E,13,Urban
E2V0A5,E2V,45.861526,-66.448551,Burton,E,13,Urban
E3A0A1,E3A,45.969531,-66.634584,Fredericton,E,13,Urban
E3B0A1,E3B,45.83378502,-66.60186471,Waasis,E,13,Urban
E3C0A2,E3C,45.94465,-66.68987,Fredericton,E,13,Urban
E3E0A1,E3E,45.90701,-66.816111,Hanwell,E,13,Urban
E3L0A1,E3L,45.22407,-67.289422,Crocker Hill,E,13,Urban
E3N0A1,E3N,47.745747,-66.668383,Glenlevit,E,13,Urban
E3V0A1,E3V,47.3653,-68.310739,Edmundston,E,13,Urban
E3Y0A1,E3Y,47.05580839,-67.75256639,Grand Falls,E,13,Urban
E3Z0A1,E3Z,46.922153,-67.736864,Grand-Sault/Grand Falls,E,13,Urban
E4A0A1,E4A,46.17073028,-65.88540248,Chipman,E,13,Urban
E4B0A1,E4B,45.997819,-66.115645,Scotchtown,E,13,Urban
E4C0A1,E4C,45.84635,-66.01588,Cambridge-Narrows,E,13,Urban
E4E0A1,E4E,45.684465,-65.417561,Sussex,E,13,Urban
E4G0A2,E4G,45.912661,-65.431529,Penobsquis,E,13,Urban
E4H0A1,E4H,45.98344851,-65.19451934,Salem,E,13,Urban
E4J0A1,E4J,46.03529,-65.0234,Salisbury,E,13,Urban
E4K0A1,E4K,46.04254,-64.55465,Memramcook,E,13,Urban
E4L0A1,E4L,45.960419,-64.311764,Sackville,E,13,Urban
E4M0A1,E4M,46.112937,-64.025671,Little Shemogue,E,13,Urban
E4N0A1,E4N,46.192161,-64.16233,Petit-Cap,E,13,Urban
E4P0A1,E4P,46.19582,-64.485798,Grand-Barachois,E,13,Urban
E4R0A1,E4R,46.35780959,-64.61443425,Cocagne,E,13,Urban
E4S0A1,E4S,46.480345,-64.793693,Bouctouche,E,13,Urban
E4T0A1,E4T,46.40056,-65.18736,Harcourt,E,13,Urban
E4V0A1,E4V,46.376323,-64.811965,Mckees Mills,E,13,Urban
E4W0A1,E4W,46.502794,-64.915267,South Branch Kent Co,E,13,Urban
E4X0A1,E4X,46.7649,-65.109552,Saint-Louis,E,13,Urban
E4Y0A4,E4Y,46.600193,-65.483487,Rogersville,E,13,Urban
E4Z0A1,E4Z,45.94347,-65.390553,Havelock,E,13,Urban
E5A0A1,E5A,45.270761,-67.18767,Tower Hill,E,13,Urban
E5B0A1,E5B,45.12787775,-66.81973847,Bayside,E,13,Urban
E5C0A1,E5C,45.2753,-66.700855,Utopia,E,13,Urban
E5E0A1,E5E,44.901049,-66.933341,Wilsons Beach,E,13,Urban
E5G0A1,E5G,44.699654,-66.804219,Grand Manan,E,13,Urban
E5H0A1,E5H,45.109554,-66.700684,Beaver Harbour,E,13,Urban
E5J0A1,E5J,45.186974,-66.414479,Little Lepreau,E,13,Urban
E5K0A1,E5K,45.337615,-66.229607,Grand Bay-Westfield,E,13,Urban
E5L0A1,E5L,45.683685,-66.647736,Fredericton Junction,E,13,Urban
E5M0A1,E5M,45.468351,-66.126679,Browns Flat,E,13,Urban
E5N0A0,E5N,45.478832,-65.79445,Willow Grove,E,13,Urban
E5P0A1,E5P,45.720891,-65.745996,Belleisle Creek,E,13,Urban
E5R0A1,E5R,45.36303,-65.530028,Orange Hill,E,13,Urban
E5S0A1,E5S,45.186245,-66.150553,Carters Point,E,13,Urban
E5T0A1,E5T,45.56518,-65.990937,Kars,E,13,Urban
E5V1A1,E5V,45.048111,-66.955616,Lord's Cove,E,13,Urban
E6A1A1,E6A,46.44807,-66.47617,Taxis River,E,13,Urban
E6B0A1,E6B,46.480968,-66.907959,English Settlement,E,13,Urban
E6C1A1,E6C,46.175771,-66.6125,Taymouth,E,13,Urban
E6E1A0,E6E,46.1084078,-67.1638157,Middle Hainesville,E,13,Urban
E6G0A1,E6G,46.003154,-67.233609,Nackawic,E,13,Urban
E6H0A1,E6H,45.83457101,-67.64587248,Eel River Lake,E,13,Urban
E6J0A1,E6J,45.636602,-67.380563,Mcadam,E,13,Urban
E6K0A1,E6K,45.698076,-67.024478,Prince William,E,13,Urban
E6L0A1,E6L,45.99802,-66.82921,Keswick,E,13,Urban
E7A0A1,E7A,47.4388,-68.530901,Baker Brook,E,13,Urban
E7B0A1,E7B,47.423894,-68.393482,Saint-Jacques,E,13,Urban
E7C0A1,E7C,47.488654,-68.033612,Madawaska Maliseet Frst Nation,E,13,Urban
E7E0A1,E7E,47.340961,-67.868397,Notre Dame De Lourdes,E,13,Urban
E7G0A1,E7G,47.04599,-67.217028,New Denmark,E,13,Urban
E7H0A1,E7H,46.741202,-67.705749,Perth-Andover,E,13,Urban
E7J1A1,E7J,46.49798673,-67.57857281,Bath,E,13,Urban
E7K0A1,E7K,46.307734,-67.642009,Avondale,E,13,Urban
E7L0A1,E7L,46.480696,-67.428246,Glassville,E,13,Urban
E7M0A1,E7M,46.20317714,-67.70840707,Belleville,E,13,Urban
E7N0A1,E7N,46.10409,-67.495484,Northampton,E,13,Urban
E7P0A1,E7P,46.34682716,-67.37723881,Carlisle,E,13,Urban
E8A0A2,E8A,47.715617,-67.771086,Saint-Quentin,E,13,Urban
E8B0A1,E8B,47.639011,-67.345953,Kedgwick,E,13,Urban
E8C1A1,E8C,48.047691,-66.400397,Eel River Bar First Nation,E,13,Urban
E8E0A1,E8E,47.736672,-66.493679,Charlo,E,13,Urban
E8G0A1,E8G,47.756625,-66.117623,Sea Side,E,13,Urban
E8J0A1,E8J,47.78329721,-65.72037816,Petit-Rocher,E,13,Urban
E8K0A1,E8K,47.691894,-65.696983,Beresford,E,13,Urban
E8L1A1,E8L,47.588716,-65.097854,Allardville,E,13,Urban
E8M1A1,E8M,47.802226,-65.186153,Bois-Gagnon,E,13,Urban
E8N0A1,E8N,47.806393,-65.213979,Grande Anse,E,13,Urban
E8P0A1,E8P,47.680081,-64.85471,Pokemouche,E,13,Urban
E8R0A1,E8R,47.628707,-65.166937,Val-Doucet,E,13,Urban
E8S0A1,E8S,47.745484,-64.707924,Shippagan,E,13,Urban
E8T0A1,E8T,47.78644968,-64.6917724,Pointe-Alexandre,E,13,Urban
E9A1A1,E9A,46.738552,-65.852813,Baie-Sainte-Anne,E,13,Urban
E9B0A1,E9B,46.619606,-65.76806,Cains River,E,13,Urban
E9C0A1,E9C,46.594438,-65.935702,Blissfield,E,13,Urban
E9E0A1,E9E,47.176734,-66.251456,Doyles Brook,E,13,Urban
E9G0A1,E9G,47.257217,-65.210729,N�GUAC,E,13,Urban
E9H0A1,E9H,47.3420607,-64.99653747,Tabusintac,E,13,Urban
G0A1A0,G0A,46.852397,-72.02586,Sainte-Christine-D'Auvergne,G,24,Rural
G0B1A0,G0B,47.221808,-61.930489,Bassin,G,24,Rural
G0C1A0,G0C,48.612101,-64.340859,Barachois,G,24,Rural
G0E1A0,G0E,48.929801,-64.34378,Anse-Au-Griffon,G,24,Rural
G0G0A6,G0G,52.209441,-63.57285,,G,24,Rural
G0H1A0,G0H,49.403751,-67.310413,BIENFAIT,G,24,Rural
G0J1A0,G0J,49.02261,-66.815835,Albertville,G,24,Rural
G0K1A0,G0K,48.093202,-68.523965,Esprit-Saint,G,24,Rural
G0L0K0,G0L,47.816684,-69.249631,St-Gabriel-De-Kamouraska,G,24,Rural
G0M1A0,G0M,46.20568,-70.832613,Beauceville-Ouest,G,24,Rural
G0N1A0,G0N,46.065105,-71.435195,Black Lake,G,24,Rural
G0P1A0,G0P,45.864106,-71.652267,Ham-Nord,G,24,Rural
G0R1A0,G0R,46.702117,-70.567227,Armagh,G,24,Rural
G0S1A0,G0S,46.263459,-70.792884,Beauceville-Est,G,24,Rural
G0T0L4,G0T,48.764095,-69.722488,Longue Rive,G,24,Rural
G0V1A0,G0V,48.344771,-70.986941,Alouette,G,24,Rural
G0W1A0,G0W,48.885445,-72.443349,Albanel,G,24,Rural
G0X1A0,G0X,46.52742,-72.24385,Batiscan,G,24,Rural
G0Y1A0,G0Y,45.6716,-70.75926,Audet,G,24,Rural
G0Z1A0,G0Z,46.1554695,-72.2012605,Aston-Jonction,G,24,Rural
G1A0A1,G1A,46.8087277,-71.2138297,Qu�Bec,G,24,Urban
G1B0A1,G1B,46.766475,-71.363761,Sainte-Foy,G,24,Urban
G1C0A1,G1C,46.876819,-71.158036,Qu�Bec,G,24,Urban
G1E0A1,G1E,46.854171,-71.208014,Beauport,G,24,Urban
G1G0A0,G1G,46.873919,-71.282249,Charlesbourg,G,24,Urban
G1H0A1,G1H,46.84305218,-71.2430483,QU�BEC,G,24,Urban
G1J0A1,G1J,46.84419,-71.240407,Qu�Bec,G,24,Urban
G1K0A1,G1K,46.817913,-71.221751,Qu�Bec,G,24,Urban
G1L0A1,G1L,46.833537,-71.260343,Qu�Bec,G,24,Urban
G1M0A1,G1M,46.817343,-71.265058,Vanier,G,24,Urban
G1N0A1,G1N,46.807048,-71.248291,Qu�Bec,G,24,Urban
G1P0A1,G1P,46.825943,-71.334134,QU�BEC,G,24,Urban
G1R0A1,G1R,46.811735,-71.214269,Qu�Bec,G,24,Urban
G1S0A1,G1S,46.798546,-71.242311,QU�BEC,G,24,Urban
G1T0A1,G1T,46.771964,-71.256576,Quebec,G,24,Urban
G1V0A1,G1V,46.79097528,-71.26385175,QU�BEC,G,24,Urban
G1W0A2,G1W,46.75388,-71.31949,QU�BEC,G,24,Urban
G1X0A1,G1X,46.812967,-71.230102,Qu�Bec,G,24,Urban
G1Y0A1,G1Y,46.760021,-71.350219,QU�BEC,G,24,Urban
G2A0A1,G2A,46.906103,-71.42991,QU�BEC,G,24,Urban
G2B0A1,G2B,46.75624,-71.362495,Qu�Bec,G,24,Urban
G2C0A1,G2C,46.827576,-71.333524,QU�BEC,G,24,Urban
G2E0A1,G2E,46.80830871,-71.36360577,L'Ancienne-Lorette,G,24,Urban
G2G0A1,G2G,46.764582,-71.399077,QU�BEC,G,24,Urban
G2H1A1,G2H,46.802391,-71.230792,Quebec,G,24,Urban
G2J0A1,G2J,46.840127,-71.279462,QU�BEC,G,24,Urban
G2K0A1,G2K,46.830649,-71.294758,Qu�Bec,G,24,Urban
G2L0A1,G2L,46.87918366,-71.25642811,QU�BEC,G,24,Urban
G2M0A1,G2M,46.9309,-71.316572,Qu�Bec,G,24,Urban
G2N0A1,G2N,46.853939,-71.21894,Beauport,G,24,Urban
G3A0A1,G3A,46.759821,-71.467617,Saint-Augustin-De-Desmaures,G,24,Urban
G3E0A1,G3E,46.876811,-71.335203,Qu�Bec,G,24,Urban
G3G0A1,G3G,46.87328626,-71.35759491,QU�BEC,G,24,Urban
G3H0A1,G3H,46.7451426,-71.68909251,Pont-Rouge,G,24,Urban
G3J0A1,G3J,46.865178,-71.445528,Val-B�Lair,G,24,Urban
G3K0A1,G3K,46.850042,-71.425566,Val-B�Lair,G,24,Urban
G3L0A1,G3L,46.997879,-71.87954,Saint-Raymond,G,24,Urban
G3M0A1,G3M,46.680265,-71.723785,Donnacona,G,24,Urban
G3Z0A1,G3Z,47.453429,-70.511213,Baie-Saint-Paul,G,24,Urban
G4A0A1,G4A,47.696337,-70.231415,Clermont,G,24,Urban
G4G4S8,G4G,46.101151,-71.297422,Thetford-Mines,G,24,Urban
G4R0A1,G4R,50.179161,-66.334031,SEPT-�LES,G,24,Urban
G4S1A1,G4S,50.231749,-66.389169,Sept-�Les,G,24,Urban
G4T0A1,G4T,47.25178183,-62.00751182,Millerand,G,24,Urban
G4V0A1,G4V,49.103997,-66.421851,Sainte-Anne-Des-Monts,G,24,Urban
G4W0A1,G4W,48.945267,-67.686617,Matane,G,24,Urban
G4X0A1,G4X,48.901929,-64.474517,GASP�,G,24,Urban
G4Z0A1,G4Z,49.218794,-68.159653,Baie-Comeau,G,24,Urban
G5A0A1,G5A,47.720976,-70.142887,La Malbaie,G,24,Urban
G5B0A3,G5B,50.0769534,-66.844785,Port-Cartier,G,24,Urban
G5C0A1,G5C,49.198744,-68.291702,Baie-Comeau,G,24,Urban
G5H0A1,G5H,48.595386,-68.191596,Mont-Joli,G,24,Urban
G5J0A1,G5J,48.4724624,-67.43254955,Amqui,G,24,Urban
G5L0A1,G5L,48.465035,-68.513504,Rimouski,G,24,Urban
G5M0A1,G5M,48.46030815,-68.4957967,Rimouski,G,24,Urban
G5N0A1,G5N,48.415084,-68.571564,Rimouski,G,24,Urban
G5R0A1,G5R,47.831527,-69.545337,RIVI�RE-DU-LOUP,G,24,Urban
G5T0A1,G5T,47.620249,-68.556084,Degelis,G,24,Urban
G5V0A1,G5V,46.9835004,-70.55034272,Montmagny,G,24,Urban
G5X0A1,G5X,46.229009,-70.771037,Beauceville,G,24,Urban
G5Y0A1,G5Y,46.12561462,-70.68482861,Saint-Georges,G,24,Urban
G5Z0A1,G5Z,46.09903915,-70.64358543,Saint-Georges,G,24,Urban
G6A0A1,G6A,46.12538622,-70.66482411,Saint-Georges,G,24,Urban
G6B0A1,G6B,45.538858,-70.844397,LAC-M�GANTIC,G,24,Urban
G6C0A1,G6C,46.7643261,-71.12858666,Pintendre,G,24,Urban
G6E0A1,G6E,46.439937,-71.000166,Sainte-Marie,G,24,Urban
G6G0A1,G6G,46.085583,-71.287496,Saint-Jean-De-Brebeuf,G,24,Urban
G6H0A1,G6H,46.103878,-71.321371,Thetford Mines,G,24,Urban
G6J0A1,G6J,46.636489,-71.317824,SAINT-�TIENNE-DE-LAUZON,G,24,Urban
G6K0A1,G6K,46.697273,-71.289038,SAINT-AMATEUR,G,24,Urban
G6L0A1,G6L,46.203951,-71.837358,Princeville,G,24,Urban
G6P0A1,G6P,46.04739,-71.91314,Victoriaville,G,24,Urban
G6R0A2,G6R,46.059528,-71.99134,Victoriaville,G,24,Urban
G6S0A1,G6S,46.051975,-71.919946,Victoriaville,G,24,Urban
G6T0A1,G6T,46.078697,-71.974205,Victoriaville,G,24,Urban
G6V0A1,G6V,46.82455,-71.150055,L�Vis,G,24,Urban
G6W0A1,G6W,46.70507,-71.216506,L�VIS,G,24,Urban
G6X0A1,G6X,46.7103701,-71.2631476,Charny,G,24,Urban
G6Z0A1,G6Z,46.678212,-71.208216,Saint-Jean-Chrysostome,G,24,Urban
G7A0A1,G7A,46.703938,-71.314064,Saint-Nicolas,G,24,Urban
G7B0A1,G7B,48.245357,-70.844347,La Baie,G,24,Urban
G7G1A1,G7G,48.457291,-71.058845,Chicoutimi,G,24,Urban
G7H0A1,G7H,48.420788,-71.066005,Chicoutimi,G,24,Urban
G7J0A1,G7J,48.417614,-71.094683,Chicoutimi,G,24,Urban
G7K1A1,G7K,48.399031,-71.113175,Chicoutimi,G,24,Urban
G7N0A1,G7N,48.321879,-71.133745,Laterri�Re,G,24,Urban
G7P0A3,G7P,48.5921922,-71.3373783,,G,24,Urban
G7S0A1,G7S,48.423165,-71.215138,Jonqui�Re,G,24,Urban
G7T1A1,G7T,48.410465,-71.210562,Jonqui�Re,G,24,Urban
G7X0A0,G7X,48.379228,-71.381867,Jonqui�Re,G,24,Urban
G7Y1A1,G7Y,48.397576,-71.26407,JONQUI�RE,G,24,Urban
G7Z0A1,G7Z,48.442263,-71.261672,Jonqui�Re,G,24,Urban
G8A0A1,G8A,48.404749,-71.316341,Jonquiere,G,24,Urban
G8B0A1,G8B,48.56623977,-71.63465919,Alma,G,24,Urban
G8C0A1,G8C,48.555019,-71.669219,Alma,G,24,Urban
G8E0A1,G8E,48.618023,-71.746732,Alma,G,24,Urban
G8G0A5,G8G,48.3853282,-71.837519,,G,24,Urban
G8H1A1,G8H,48.504403,-72.216518,Roberval,G,24,Urban
G8J0A1,G8J,48.59027223,-72.33254361,Saint-Prime,G,24,Urban
G8K0A1,G8K,48.714378,-72.409741,SAINT-F�LICIEN,G,24,Urban
G8L0A1,G8L,48.858632,-72.195772,Dolbeau-Mistassini,G,24,Urban
G8M0A1,G8M,48.883311,-72.445665,Albanel,G,24,Urban
G8N0A1,G8N,48.35759,-71.680345,H�BERTVILLE,G,24,Urban
G8P0A1,G8P,49.910721,-74.35772,Chibougamau,G,24,Urban
G8T0A1,G8T,46.37905362,-72.53297576,TROIS-RIVI�RES,G,24,Urban
G8V0A1,G8V,46.3548,-72.541648,Trois-Rivi�Res,G,24,Urban
G8W0A1,G8W,46.312976,-72.587766,Trois-Rivi�Res,G,24,Urban
G8Y0A1,G8Y,46.362962,-72.623416,Trois-Rivi�Res,G,24,Urban
G8Z0A3,G8Z,46.346292,-72.576605,Trois-Rivi�Res,G,24,Urban
G9A0A1,G9A,46.328129,-72.567077,Trois-Rivi�Res-Ouest,G,24,Urban
G9B0A1,G9B,46.319634,-72.612718,TROIS-RIVI�RES,G,24,Urban
G9C0A1,G9C,46.377799,-72.667221,TROIS-RIVI�RES,G,24,Urban
G9H0A1,G9H,46.2961153,-72.53823989,B�CANCOUR,G,24,Urban
G9N0A1,G9N,46.587636,-72.708107,Shawinigan,G,24,Urban
G9P0A1,G9P,46.515785,-72.73603,Shawinigan-Sud,G,24,Urban
G9R0A1,G9R,46.6483726,-72.8532371,Saint-G�Rard-Des-Laurentides,G,24,Urban
G9T0A1,G9T,45.51175,-73.498549,Saint-Georges-De-Champlain,G,24,Urban
G9X0A1,G9X,47.317216,-72.725803,La Tuque,G,24,Urban
H0A1A0,H0A,45.754689,-73.263866,Address Unknown,H,24,Rural
H0M1A0,H0M,45.69861,-73.502521,Akwesasne,H,24,Rural
H1A0A1,H1A,45.651381,-73.50238,Montr�Al,H,24,Urban
H1B0A1,H1B,45.662719,-73.505814,Pointe-Aux-Trembles,H,24,Urban
H1C0A1,H1C,45.662676,-73.555524,Montr�Al,H,24,Urban
H1E0A1,H1E,45.629804,-73.596173,MONTR�AL,H,24,Urban
H1G1A0,H1G,45.610314,-73.622668,Montr�Al-Nord,H,24,Urban
H1H0A1,H1H,45.590816,-73.650184,Montr�Al,H,24,Urban
H1J0A1,H1J,45.625926,-73.551592,Anjou,H,24,Urban
H1K0A1,H1K,45.614129,-73.546791,Anjou,H,24,Urban
H1L0A1,H1L,45.676445,-73.501038,Montr�Al,H,24,Urban
H1M0A1,H1M,45.595471,-73.557096,Anjou,H,24,Urban
H1N0A1,H1N,45.592276,-73.545892,MONTR�AL,H,24,Urban
H1P1A1,H1P,45.610674,-73.604947,Montr�Al-Nord,H,24,Urban
H1R0A1,H1R,45.586592,-73.607993,SAINT L�ONARD,H,24,Urban
H1S0A1,H1S,45.56813457,-73.58558694,MONTR�AL,H,24,Urban
H1T0A1,H1T,45.5695312,-73.5731155,,H,24,Urban
H1V0A7,H1V,45.556924,-73.5369295,Longue-Pointe,H,24,Urban
H1W0A1,H1W,45.459538,-73.630836,MONTR�AL,H,24,Urban
H1X0A6,H1X,45.556136,-73.572841,Montr�Al,H,24,Urban
H1Y0A1,H1Y,45.545058,-73.56697,MONTR�AL,H,24,Urban
H1Z0A1,H1Z,45.584853,-73.651772,MONTR�AL,H,24,Urban
H2A0A1,H2A,45.561785,-73.599742,Montr�Al,H,24,Urban
H2B1A0,H2B,45.569983,-73.646249,Sault-Au-R�Collet,H,24,Urban
H2C0B7,H2C,45.559899,-73.65589,Sault-Au-R�Collet,H,24,Urban
H2E1A1,H2E,45.552125,-73.625616,MONTR�AL,H,24,Urban
H2G0O0,H2G,45.5410152,-73.5932759,Montreal,H,24,Urban
H2H1A1,H2H,45.537276,-73.583876,Montr�Al,H,24,Urban
H2J0A1,H2J,45.531332,-73.591457,Montr�Al,H,24,Urban
H2K0A1,H2K,45.527907,-73.560279,Montr�Al,H,24,Urban
H2L0A1,H2L,45.500944,-73.568281,Montr�Al,H,24,Urban
H2M1A1,H2M,45.550295,-73.651128,Montr�Al,H,24,Urban
H2N0A9,H2N,45.540805,-73.650936,Youville,H,24,Urban
H2P0A1,H2P,45.616825,-73.5624,MONTR�AL,H,24,Urban
H2R1A1,H2R,45.545751,-73.626308,Montr�Al,H,24,Urban
H2S0A1,H2S,45.535704,-73.60623,Montreal,H,24,Urban
H2T0A1,H2T,45.523391,-73.595635,Montreal,H,24,Urban
H2V0A1,H2V,45.515601,-73.608075,Outremont,H,24,Urban
H2W1A1,H2W,45.519575,-73.583539,Montr�Al,H,24,Urban
H2X0A1,H2X,45.509807,-73.559776,Montr�Al,H,24,Urban
H2Y0A1,H2Y,45.50482,-73.555708,Montr�Al,H,24,Urban
H2Z0A1,H2Z,45.503721,-73.561813,Montr�Al,H,24,Urban
H3A0A1,H3A,45.500257,-73.575435,Montr�Al,H,24,Urban
H3B0A1,H3B,45.515439,-73.553814,Montr�Al,H,24,Urban
H3C0A1,H3C,45.461658,-73.87242,MONTR�AL,H,24,Urban
H3E0A1,H3E,45.46779,-73.543697,Verdun,H,24,Urban
H3G0A1,H3G,45.500333,-73.58008,MONTR�AL,H,24,Urban
H3H1A1,H3H,45.514559,-73.590377,Outremont,H,24,Urban
H3J0A1,H3J,45.484769,-73.572828,Westmount,H,24,Urban
H3K0A1,H3K,45.479688,-73.558618,Montr�Al,H,24,Urban
H3L0A1,H3L,45.539429,-73.661567,Montr�Al,H,24,Urban
H3M1A1,H3M,45.545892,-73.697882,Montreal,H,24,Urban
H3N1A1,H3N,45.547876,-73.636997,MONTR�AL,H,24,Urban
H3P1A1,H3P,45.519798,-73.65354,Mont-Royal,H,24,Urban
H3R1A1,H3R,45.518167,-73.654633,Mont-Royal,H,24,Urban
H3S1A1,H3S,45.515742,-73.62877,Mont-Royal,H,24,Urban
H3T1A0,H3T,45.502095,-73.62062,Snowdon,H,24,Urban
H3V1A1,H3V,45.496185,-73.617902,Montr�Al,H,24,Urban
H3W0A1,H3W,45.502607,-73.623819,MONTR�AL,H,24,Urban
H3X0A1,H3X,45.4840535,-73.6501956,,H,24,Urban
H3Y1A1,H3Y,45.48916,-73.617969,Westmount,H,24,Urban
H3Z0A1,H3Z,45.486177,-73.587796,Westmount,H,24,Urban
H4A0A1,H4A,45.470945,-73.608485,MONTR�AL,H,24,Urban
H4B1A1,H4B,45.468055,-73.635862,Montr�Al,H,24,Urban
H4C0A1,H4C,45.481639,-73.582507,Montr�Al,H,24,Urban
H4E1A1,H4E,45.474262,-73.577575,MONTR�AL,H,24,Urban
H4G0A1,H4G,45.474181,-73.569793,Verdun,H,24,Urban
H4H1A1,H4H,45.453009,-73.582019,Verdun,H,24,Urban
H4J1A1,H4J,45.53531,-73.722864,Montr�Al,H,24,Urban
H4K1A1,H4K,45.525195,-73.738551,MONTR�AL,H,24,Urban
H4L0A1,H4L,45.505717,-73.675223,Saint-Laurent,H,24,Urban
H4M0A1,H4M,45.50572605,-73.68088541,Saint-Laurent,H,24,Urban
H4N1A1,H4N,45.533099,-73.68075,Montr�Al,H,24,Urban
H4P0A1,H4P,45.4974431,-73.6590576,,H,24,Urban
H4R0A1,H4R,45.507783,-73.714875,Saint-Laurent,H,24,Urban
H4S0A2,H4S,45.4895377,-73.7538709,,H,24,Urban
H4T0Z0,H4T,45.481223,-73.697655,Saint-Laurent,H,24,Urban
H4V0A1,H4V,45.4671192,-73.6501059,Montr�Al,H,24,Urban
H4W0A1,H4W,45.47881912,-73.65895099,C�te-Saint-Luc,H,24,Urban
H4X1A1,H4X,45.45794066,-73.66470286,C�te-Saint-Luc,H,24,Urban
H4Y0A1,H4Y,45.413521,-73.499133,Saint-Laurent,H,24,Urban
H4Z0A2,H4Z,45.501054,-73.561407,Montr�Al,H,24,Urban
H5A1A0,H5A,45.503167,-73.567858,Montreal,H,24,Urban
H5B0A1,H5B,45.509899,-73.851736,Pierrefonds,H,24,Urban
H7A0A1,H7A,45.65991321,-73.59150239,Laval,H,24,Urban
H7B1A1,H7B,45.634593,-73.676929,Montreal,H,24,Urban
H7C0A1,H7C,45.627591,-73.655944,Laval,H,24,Urban
H7E0A1,H7E,45.62435,-73.68875,Laval,H,24,Urban
H7G0A1,H7G,45.590512,-73.69438,Laval,H,24,Urban
H7H0A1,H7H,45.62984186,-73.75745285,Laval,H,24,Urban
H7J1A1,H7J,45.691723,-73.620542,Laval,H,24,Urban
H7K0A1,H7K,45.531478,-73.808806,Laval,H,24,Urban
H7L0A1,H7L,45.591563,-73.796322,Laval,H,24,Urban
H7M0A1,H7M,45.597515,-73.717576,Laval,H,24,Urban
H7N0A1,H7N,45.581744,-73.746708,Laval,H,24,Urban
H7P0A1,H7P,45.56007865,-73.79043758,Laval,H,24,Urban
H7R0A1,H7R,45.581744,-73.746708,Laval,H,24,Urban
H7S1A1,H7S,45.57226,-73.745093,Laval,H,24,Urban
H7T0A1,H7T,45.563909,-73.756198,Laval,H,24,Urban
H7V0A3,H7V,45.546618,-73.738059,Laval,H,24,Urban
H7W0A1,H7W,45.530364,-73.751589,Laval,H,24,Urban
H7X0A0,H7X,45.537965,-73.809799,Laval,H,24,Urban
H7Y0A1,H7Y,45.520153,-73.853622,Laval,H,24,Urban
H8N0A1,H8N,45.446562,-73.630615,Lasalle,H,24,Urban
H8P1A1,H8P,45.437078,-73.597895,Lasalle,H,24,Urban
H8R0A3,H8R,45.4252462,-73.644623,Lasalle,H,24,Urban
H8S1A1,H8S,45.449674,-73.677554,Lachine,H,24,Urban
H8T0A1,H8T,45.4538431,-73.7079691,Lachine,H,24,Urban
H8Y0A1,H8Y,45.506509,-73.790444,Pierrefonds,H,24,Urban
H8Z0A4,H8Z,45.5109674,-73.8348084,Pierrefonds,H,24,Urban
H9A0A1,H9A,45.4940213,-73.8346345,Dollard-Des-Ormeaux,H,24,Urban
H9B0A1,H9B,45.4877792,-73.8082596,Dollard-Des-Ormeaux,H,24,Urban
H9C1A1,H9C,45.51428566,-73.90134477,L'�le-Bizard,H,24,Urban
H9E1A1,H9E,45.510603,-73.909992,Roxboro,H,24,Urban
H9G1A1,H9G,45.479071,-73.844968,Dollard-Des-Ormeaux,H,24,Urban
H9H0A2,H9H,45.469496,-73.856245,Pierrefonds,H,24,Urban
H9J1A1,H9J,45.469036,-73.886317,Pierrefonds,H,24,Urban
H9K0A1,H9K,45.4556408,-73.9200606,Pierrefonds,H,24,Urban
H9P0A1,H9P,45.4752861,-73.7721807,Saint-Laurent,H,24,Urban
H9R0A1,H9R,45.461044,-73.811967,Pointe-Claire,H,24,Urban
H9S0A1,H9S,45.446821,-73.731577,Dorval,H,24,Urban
H9W0A1,H9W,45.412938,-73.8583147,Beaconsfield,H,24,Urban
H9X0A1,H9X,45.43043556,-73.92245195,Sainte-Anne-De-Bellevue,H,24,Urban
J0A1A0,J0A,45.78526,-72.01897,Danville,J,24,Rural
J0B0A3,J0B,45.390492,-71.648412,Cookshire,J,24,Rural
J0C1A0,J0C,45.991414,-72.321616,Bon-Conseil,J,24,Rural
J0E1A0,J0E,45.435286,-72.883572,Abbotsford,J,24,Rural
J0G0O0,J0G,46.023499,-72.799495,Baie-Du-Febvre,J,24,Rural
J0H0C0,J0H,45.679771,-72.72206,St-Liboire,J,24,Rural
J0J0C9,J0J,45.140684,-73.126115,Pike River,J,24,Rural
J0K1A0,J0K,46.066779,-73.187236,Berthierville,J,24,Rural
J0L0L0,J0L,45.493311,-73.353363,Carignan,J,24,Rural
J0M0E0,J0M,53.5178,-74.522267,,J,24,Rural
J0N1A0,J0N,45.717976,-73.635364,Lachenaie,J,24,Rural
J0P1A0,J0P,45.448667,-74.101505,Como,J,24,Rural
J0R1A0,J0R,45.812408,-74.212147,Mille-Isles,J,24,Rural
J0S1A0,J0S,45.013097,-74.174444,Athelstan,J,24,Rural
J0T1A0,J0T,45.965622,-74.617744,Arundel,J,24,Rural
J0V1A0,J0V,45.763052,-74.462353,Brownsburg,J,24,Rural
J0W1A0,J0W,46.653085,-75.240851,Chute-Saint-Philippe,J,24,Rural
J0X1A0,J0X,45.523395,-76.439182,Alcove,J,24,Rural
J0Y1A0,J0Y,48.54716,-77.63799,Barraute,J,24,Rural
J0Z1A0,J0Z,47.482202,-79.210216,Angliers,J,24,Rural
J1A0A1,J1A,45.121135,-71.81214,Coaticook,J,24,Urban
J1C0A1,J1C,45.503366,-71.891556,Sherbrooke,J,24,Urban
J1E0A1,J1E,45.426127,-71.868103,Fleurimont,J,24,Urban
J1G0A0,J1G,45.406088,-71.837567,Fleurimont,J,24,Urban
J1H0A2,J1H,45.397412,-71.887903,Sherbrooke,J,24,Urban
J1J1A1,J1J,45.424156,-71.918767,Sherbrooke,J,24,Urban
J1K0A1,J1K,45.389463,-71.948314,Sherbrooke,J,24,Urban
J1L0A1,J1L,45.404161,-71.960611,Sherbrooke,J,24,Urban
J1M0A1,J1M,45.378247,-71.852161,Sherbrooke,J,24,Urban
J1N0A1,J1N,45.424579,-71.871796,Fleurimont,J,24,Urban
J1R0A1,J1R,45.390366,-71.892424,Sherbrooke,J,24,Urban
J1S0A2,J1S,45.6126312,-71.9997578,,J,24,Urban
J1T0A1,J1T,45.7580299,-71.9327965,,J,24,Urban
J1X0A1,J1X,45.25312527,-72.14112546,Magog,J,24,Urban
J1Z0A1,J1Z,45.87607226,-72.4094323,Saint-Cyrille-De-Wendover,J,24,Urban
J2A0A1,J2A,45.8561924,-72.40221998,SAINT-NIC�PHORE,J,24,Urban
J2B0A1,J2B,45.86373,-72.50517,Drummondville,J,24,Urban
J2C0A1,J2C,45.896425,-72.515918,Drummondville,J,24,Urban
J2E1A1,J2E,45.905818,-72.527111,Drummondville,J,24,Urban
J2G0A1,J2G,45.389338,-72.748888,Granby,J,24,Urban
J2H0A1,J2H,45.39277641,-72.70024018,Granby,J,24,Urban
J2J0A0,J2J,45.401523,-72.776507,Cantons-De-Granby,J,24,Urban
J2K0A1,J2K,45.19821,-72.758915,Cowansville,J,24,Urban
J2L0A1,J2L,45.298999,-72.674228,Bromont,J,24,Urban
J2M0A1,J2M,45.358175,-72.587125,Shefford,J,24,Urban
J2N0A1,J2N,45.27544,-72.98724,Farnham,J,24,Urban
J2R0A1,J2R,45.655533,-72.90018,Saint-Hyacinthe,J,24,Urban
J2S0A1,J2S,45.62365172,-72.95848325,Saint-Hyacinthe,J,24,Urban
J2T0A1,J2T,45.61297508,-72.95603964,Saint-Hyacinthe,J,24,Urban
J2W0A0,J2W,45.373041,-73.31943,St Jean Sur Le Richelieu,J,24,Urban
J2X0A1,J2X,45.324927,-73.249778,Saint-Athanase,J,24,Urban
J2Y1A1,J2Y,45.317184,-73.334629,Saint-Jean-Sur-Richelieu,J,24,Urban
J3A1A1,J3A,45.33389638,-73.26636282,Saint-Jean-Sur-Richelieu,J,24,Urban
J3B0A1,J3B,45.25116123,-73.24786845,Saint-Jean-Sur-Richelieu,J,24,Urban
J3E0A1,J3E,45.57962154,-73.33431955,Sainte-Julie,J,24,Urban
J3G0A1,J3G,45.564067,-73.455515,Beloeil,J,24,Urban
J3H0A1,J3H,45.556103,-73.184341,Mont-Saint-Hilaire,J,24,Urban
J3L0A1,J3L,45.427346,-73.312492,Chambly,J,24,Urban
J3M0A1,J3M,45.436147,-73.171659,Marieville,J,24,Urban
J3N0A1,J3N,45.525446,-73.289852,Saint-Basile-Le-Grand,J,24,Urban
J3P0A1,J3P,46.03951484,-73.10677389,Sorel-Tracy,J,24,Urban
J3R0A1,J3R,46.023937,-73.124039,Sorel-Tracy,J,24,Urban
J3T0A1,J3T,46.230412,-72.613724,Nicolet,J,24,Urban
J3V0A1,J3V,45.52834,-73.32818,Saint-Bruno,J,24,Urban
J3X1A0,J3X,45.683825,-73.439528,Varennes,J,24,Urban
J3Y0A1,J3Y,45.47914242,-73.40514095,Saint-Hubert,J,24,Urban
J3Z0A1,J3Z,45.461547,-73.417954,Saint-Hubert,J,24,Urban
J4B0A1,J4B,45.613876,-73.44506,Boucherville,J,24,Urban
J4G1A0,J4G,45.566207,-73.47466,Longueuil,J,24,Urban
J4H1A1,J4H,45.543364,-73.50794,Longueuil,J,24,Urban
J4J1A1,J4J,45.527633,-73.504618,Longueuil,J,24,Urban
J4K0A1,J4K,45.517992,-73.498515,Longueuil,J,24,Urban
J4L0A1,J4L,45.513356,-73.44337,Longueuil,J,24,Urban
J4M0A1,J4M,45.535376,-73.448597,Longueuil,J,24,Urban
J4N0A1,J4N,45.54937,-73.483301,Longueuil,J,24,Urban
J4P1A1,J4P,45.49701093,-73.51424781,Saint-Lambert,J,24,Urban
J4R0A1,J4R,45.492976,-73.500232,Saint-Lambert,J,24,Urban
J4S1A1,J4S,45.483161,-73.506694,Saint-Lambert,J,24,Urban
J4T0A1,J4T,45.49343279,-73.47421933,Saint-Hubert,J,24,Urban
J4V0A1,J4V,45.486044,-73.458716,Greenfield Park,J,24,Urban
J4W0A1,J4W,45.467117,-73.490518,Brossard,J,24,Urban
J4X0A1,J4X,45.434783,-73.48883,Brossard,J,24,Urban
J4Y0A1,J4Y,45.442075,-73.460319,Brossard,J,24,Urban
J4Z0A1,J4Z,45.457189,-73.421688,Brossard,J,24,Urban
J5A0A1,J5A,45.350451,-73.589026,Saint-Constant,J,24,Urban
J5B1A1,J5B,45.401936,-73.53702,Delson,J,24,Urban
J5C0A1,J5C,45.525609,-73.522684,Sainte-Catherine,J,24,Urban
J5J0A1,J5J,45.82228255,-73.94228517,Sainte-Sophie,J,24,Urban
J5K0A1,J5K,45.739323,-74.124125,Saint-Colomban,J,24,Urban
J5L0A1,J5L,45.798783,-74.047933,Saint-J�R�Me,J,24,Urban
J5M0A2,J5M,45.854799,-73.776631,Saint-Lin-Laurentides,J,24,Urban
J5R0A1,J5R,45.385763,-73.457443,Candiac,J,24,Urban
J5T0A1,J5T,45.899442,-73.306375,Lavaltrie,J,24,Urban
J5V0A1,J5V,46.256357,-72.941656,Louiseville,J,24,Urban
J5W0A1,J5W,45.853927,-73.398064,L'Assomption,J,24,Urban
J5X0A1,J5X,45.844388,-73.506602,L&#39;�PIPHANIE,J,24,Urban
J5Y0A1,J5Y,45.787463,-73.41556,Repentigny,J,24,Urban
J5Z0A1,J5Z,45.77184919,-73.47524051,Le Gardeur,J,24,Urban
J6A0A1,J6A,45.736038,-73.457186,Repentigny,J,24,Urban
J6E0A1,J6E,46.046393,-73.453278,Saint-Charles-Borrom�E,J,24,Urban
J6J0A2,J6J,45.373777,-73.754705,Ch�Teauguay-Centre,J,24,Urban
J6K0A1,J6K,45.349743,-73.748004,Ch�Teauguay,J,24,Urban
J6N0A2,J6N,45.306245,-73.853706,Beauharnois,J,24,Urban
J6R0A5,J6R,45.299122,-73.738409,Mercier,J,24,Urban
J6S0A1,J6S,45.261731,-74.157676,Salaberry-De-Valleyfield,J,24,Urban
J6T0A1,J6T,45.243229,-74.118583,Salaberry-De-Valleyfield,J,24,Urban
J6V0A1,J6V,45.722529,-73.515825,Lachenaie,J,24,Urban
J6W0A1,J6W,45.705648,-73.619134,Terrebonne,J,24,Urban
J6X0A1,J6X,45.725255,-73.669147,Terrebonne,J,24,Urban
J6Y0A1,J6Y,45.696876,-73.73892,Terrebonne,J,24,Urban
J6Z0A1,J6Z,45.670957,-73.762874,Bois-Des-Filion,J,24,Urban
J7A0A0,J7A,45.640162,-73.798279,Rosem�Re,J,24,Urban
J7B0A1,J7B,45.660633,-73.817391,Blainville,J,24,Urban
J7C0A1,J7C,45.677697,-73.902232,Blainville,J,24,Urban
J7E0A2,J7E,45.6378148,-73.8414202,Sainte-Th�R�Se-De-Blainville,J,24,Urban
J7G1A1,J7G,45.600019,-73.830211,Boisbriand,J,24,Urban
J7H0A1,J7H,45.6206,-73.871172,Boisbriand,J,24,Urban
J7J0A1,J7J,45.66721975,-73.92689852,Mirabel,J,24,Urban
J7K0A1,J7K,45.73464,-73.68372,Mascouche,J,24,Urban
J7L0A1,J7L,45.741912,-73.666884,Mascouche,J,24,Urban
J7M0A1,J7M,45.760958,-73.720289,La Plaine,J,24,Urban
J7N0A1,J7N,45.710991,-74.089434,Mirabel,J,24,Urban
J7P0A1,J7P,45.577578,-73.889164,Saint-Eustache,J,24,Urban
J7R0A1,J7R,46.614615,-71.801979,Saint-Eustache,J,24,Urban
J7T1A1,J7T,45.30479913,-74.05421739,LES C�DRES,J,24,Urban
J7V0A1,J7V,45.42333183,-74.03339712,Vaudreuil-Dorion,J,24,Urban
J7W0A3,J7W,45.35721,-73.98222,Pincourt,J,24,Urban
J7X1A1,J7X,45.261551,-74.207786,LES C�TEAUX,J,24,Urban
J7Y0A1,J7Y,45.76656386,-74.01542232,SAINT-J�R�ME,J,24,Urban
J7Z0A1,J7Z,45.79409705,-73.99185571,SAINT-J�R�ME,J,24,Urban
J8A0A1,J8A,45.89861577,-73.99799696,Saint-Hippolyte,J,24,Urban
J8B0A1,J8B,45.965999,-74.116148,SAINTE-AD�LE,J,24,Urban
J8C0A1,J8C,46.04388597,-74.27079922,Sainte-Agathe-Des-Monts,J,24,Urban
J8E0A1,J8E,46.131607,-74.567471,Mont-Tremblant,J,24,Urban
J8G0A1,J8G,45.691616,-74.436244,Brownsburg-Chatham,J,24,Urban
J8H0A1,J8H,45.651903,-74.334046,Lachute,J,24,Urban
J8L0A1,J8L,45.346365,-72.924935,L'Ange-Gardien,J,24,Urban
J8M1A1,J8M,45.555437,-75.43552,Gatineau,J,24,Urban
J8N0A2,J8N,45.636498,-75.669602,Val-Des-Monts,J,24,Urban
J8P0A1,J8P,45.504371,-75.611742,Gatineau,J,24,Urban
J8R0A1,J8R,45.472374,-75.695811,Gatineau,J,24,Urban
J8T0A1,J8T,45.476032,-75.677202,Gatineau,J,24,Urban
J8V0A1,J8V,45.477305,-75.727813,Gatineau,J,24,Urban
J8X0A1,J8X,45.429725,-75.725264,Gatineau,J,24,Urban
J8Y0A1,J8Y,45.447491,-75.734697,Gatineau,J,24,Urban
J8Z1A1,J8Z,45.46605946,-75.75632861,Gatineau,J,24,Urban
J9A0A1,J9A,45.435277,-75.781175,Gatineau,J,24,Urban
J9B0A1,J9B,45.59998315,-75.6177459,Chelsea,J,24,Urban
J9E1A0,J9E,46.395714,-76.036135,Egan-Sud,J,24,Urban
J9H0A1,J9H,45.387615,-75.830596,Gatineau,J,24,Urban
J9J0A1,J9J,45.394434,-75.854429,Gatineau,J,24,Urban
J9L0A2,J9L,46.572932,-75.576205,Mont-Laurier,J,24,Urban
J9P0A1,J9P,48.087194,-77.821832,Val-D'Or,J,24,Urban
J9T0A2,J9T,48.5647304,-78.0864304,Dalquier,J,24,Urban
J9V0A1,J9V,47.3375998,-79.4614016,,J,24,Urban
J9X0A1,J9X,48.3964079,-79.0314734,,J,24,Urban
J9Y0E5,J9Y,48.145199,-79.078906,Beaudry,J,24,Urban
J9Z0A1,J9Z,48.80952476,-79.19992592,La Sarre,J,24,Urban
K0A0A0,K0A,45.242636,-75.792165,Nepean,K,35,Rural
K0B1A0,K0B,45.57632,-74.90219,Alfred,K,35,Rural
K0C0C2,K0C,45.148648,-75.066191,Finch,K,35,Rural
K0E0E6,K0E,44.713844,-75.713944,South Augusta,K,35,Rural
K0G0G6,K0G,44.872372,-76.095259,Smiths Falls,K,35,Rural
K0H0B3,K0H,44.683614,-76.79808,Verona,K,35,Rural
K0J1A0,K0J,45.398487,-78.083635,Aylen Lake,K,35,Rural
K0K0H0,K0K,44.288407,-77.538344,Stirling,K,35,Rural
K0L1A0,K0L,44.83243,-77.930248,Apsley,K,35,Rural
K0M0H0,K0M,44.875399,-78.690254,Minden,K,35,Rural
K1A0A1,K1A,45.44459927,-75.69266847,Ottawa,K,35,Urban
K1B0A1,K1B,45.416035,-75.621899,Gloucester,K,35,Urban
K1C0A1,K1C,45.480486,-75.551236,Orleans,K,35,Urban
K1E1A1,K1E,45.48784155,-75.51983257,ORL�ANS,K,35,Urban
K1G0A0,K1G,45.415407,-75.639105,Ottawa,K,35,Urban
K1H0H3,K1H,45.388463,-75.663075,Ottawa,K,35,Urban
K1J0A1,K1J,45.267018,-75.59934,Ottawa,K,35,Urban
K1K0A1,K1K,45.4577,-75.627969,Ottawa,K,35,Urban
K1L0A1,K1L,45.443134,-75.661664,Vanier,K,35,Urban
K1M0A1,K1M,45.45317473,-75.68727814,Rockcliffe,K,35,Urban
K1N0A1,K1N,45.43003186,-75.69289218,Ottawa,K,35,Urban
K1P0A1,K1P,45.42175544,-75.6981492,Ottawa,K,35,Urban
K1R0A1,K1R,45.412839,-75.707804,Ottawa,K,35,Urban
K1S0A1,K1S,45.417017,-75.679465,Ottawa,K,35,Urban
K1T0A1,K1T,45.340988,-76.207244,Ottawa,K,35,Urban
K1V0A1,K1V,45.349688,-75.661314,Ottawa,K,35,Urban
K1W0A1,K1W,45.424765,-75.526033,Gloucester,K,35,Urban
K1X0A1,K1X,45.297632,-75.626874,Gloucester,K,35,Urban
K1Y0A1,K1Y,45.40211707,-75.75094598,Ottawa,K,35,Urban
K1Z0A1,K1Z,45.380342,-75.746841,Ottawa,K,35,Urban
K2A0A0,K2A,45.195828,-75.82306,Ottawa,K,35,Urban
K2B0A1,K2B,45.351891,-75.790968,Ottawa,K,35,Urban
K2C0A0,K2C,45.195829,-75.82306,Ottawa,K,35,Urban
K2E0A1,K2E,45.332707,-75.700968,Nepean,K,35,Urban
K2G0A1,K2G,45.336483,-75.732814,Nepean,K,35,Urban
K2H0A1,K2H,44.249605,-76.955967,Napanee,K,35,Urban
K2J0A1,K2J,45.369146,-75.768357,Nepean,K,35,Urban
K2K0A1,K2K,45.335651,-75.904639,Kanata,K,35,Urban
K2L0A1,K2L,45.31126,-75.896476,Kanata,K,35,Urban
K2M0A1,K2M,45.27791749,-75.85890691,Kanata,K,35,Urban
K2P0A1,K2P,45.419549,-75.694721,Ottawa,K,35,Urban
K2R0A1,K2R,45.2918959,-75.8006533,Nepean,K,35,Urban
K2S0A1,K2S,45.23661,-75.918236,Stittsville,K,35,Urban
K2T0A2,K2T,45.314604,-75.914255,Kanata,K,35,Urban
K2V0A1,K2V,45.302327,-75.9137,Kanata,K,35,Urban
K2W0A1,K2W,45.298604,-75.883453,Kanata,K,35,Urban
K4A0A1,K4A,45.449549,-75.47686,Orl�Ans,K,35,Urban
K4B1A0,K4B,45.425883,-75.507849,Navan,K,35,Urban
K4C0A1,K4C,45.505467,-75.472889,Cumberland,K,35,Urban
K4K0A1,K4K,45.547838,-75.279193,Rockland,K,35,Urban
K4M0A1,K4M,45.238385,-75.683799,Manotick,K,35,Urban
K4P0A1,K4P,45.250982,-75.621273,Greely,K,35,Urban
K4R0A1,K4R,45.248433,-75.35108,Russell,K,35,Urban
K6A0A1,K6A,45.603814,-74.611524,Hawkesbury,K,35,Urban
K6H0A1,K6H,45.03839,-74.728062,Cornwall,K,35,Urban
K6J0A2,K6J,45.0267017,-74.7637283,,K,35,Urban
K6K1A0,K6K,45.068399,-74.716045,Cornwall,K,35,Urban
K6T1A1,K6T,44.612969,-75.762315,Elizabethtown,K,35,Urban
K6V0A0,K6V,44.643889,-75.711444,South Augusta,K,35,Urban
K7A1A0,K7A,44.941018,-76.026397,Smiths Falls,K,35,Urban
K7C0A1,K7C,45.14936,-76.13865,Carleton Place,K,35,Urban
K7G0A1,K7G,44.327297,-76.156273,Gananoque,K,35,Urban
K7H0A1,K7H,44.904171,-76.261413,Perth,K,35,Urban
K7K0A0,K7K,44.258072,-76.461304,Pittsburgh,K,35,Urban
K7L0A1,K7L,44.22576,-76.482639,Kingston,K,35,Urban
K7M0A1,K7M,44.240643,-76.576623,Kingston,K,35,Urban
K7N0A1,K7N,44.220562,-76.660281,Amherstview,K,35,Urban
K7P0A1,K7P,44.26575399,-76.54400009,Kingston,K,35,Urban
K7R0A1,K7R,44.249119,-76.952094,Napanee,K,35,Urban
K7S0A1,K7S,45.44398356,-76.35974226,Arnprior,K,35,Urban
K7V0A1,K7V,45.476408,-76.679409,Renfrew,K,35,Urban
K8A0A1,K8A,45.769318,-77.172234,Pembroke,K,35,Urban
K8B0A1,K8B,45.8041894,-77.0820896,Pembroke,K,35,Urban
K8H0A1,K8H,45.901229,-77.281632,Petawawa,K,35,Urban
K8N0A1,K8N,44.179933,-77.356843,Belleville,K,35,Urban
K8P0A1,K8P,44.207377,-77.379509,Belleville,K,35,Urban
K8R1A1,K8R,44.13123398,-77.45211177,Belleville,K,35,Urban
K8V0A1,K8V,44.122301,-77.565871,Trenton,K,35,Urban
K9A0A1,K9A,43.977557,-78.172276,Cobourg,K,35,Urban
K9H0A1,K9H,44.3304947,-78.33252032,Peterborough,K,35,Urban
K9J0A1,K9J,44.301939,-78.334021,Peterborough,K,35,Urban
K9K0A1,K9K,44.262078,-78.360501,Peterborough,K,35,Urban
K9L0A1,K9L,44.351149,-78.30503,Peterborough,K,35,Urban
K9V0A2,K9V,44.345977,-78.762828,Lindsay,K,35,Urban
L0A1A0,L0A,44.183594,-78.556328,Bethany,L,35,Rural
L0B1A0,L0B,44.028553,-79.001546,Ashburn,L,35,Rural
L0C1A0,L0C,44.033335,-79.199995,Goodwood,L,35,Rural
L0E0B9,L0E,44.275673,-79.244725,Udora,L,35,Rural
L0G0T0,L0G,44.046345,-79.604385,Bradford West Gwillimbury,L,35,Rural
L0H1A0,L0H,43.917589,-79.108321,Brougham,L,35,Rural
L0J1A0,L0J,43.778772,-79.49914,Black Creek Village,L,35,Rural
L0K1A0,L0K,44.287718,-78.980006,Manilla,L,35,Rural
L0L0B6,L0L,44.467553,-79.725725,Springwater,L,35,Rural
L0M0C1,L0M,44.379296,-80.053492,Stayner,L,35,Rural
L0N1A0,L0N,43.849533,-80.123644,Alton,L,35,Rural
L0P0E1,L0P,43.5273465,-80.0311364,Milton,L,35,Rural
L0R1A0,L0R,43.202236,-80.076455,Alberton,L,35,Rural
L0S1A0,L0S,43.059407,-79.199128,Allanburg,L,35,Rural
L1A0A1,L1A,43.95714,-78.32509,Port Hope,L,35,Urban
L1B0A1,L1B,43.896582,-78.585114,Newcastle,L,35,Urban
L1C0A1,L1C,43.90864293,-78.70639466,Bowmanville,L,35,Urban
L1E0A1,L1E,43.87253119,-78.74392757,Courtice,L,35,Urban
L1G0A1,L1G,43.919993,-78.851731,Oshawa,L,35,Urban
L1H0A4,L1H,43.882717,-78.803043,Oshawa,L,35,Urban
L1J0A1,L1J,43.896465,-78.872901,Oshawa,L,35,Urban
L1K0A1,L1K,43.918854,-78.826723,Oshawa,L,35,Urban
L1L0A1,L1L,43.91195,-78.859823,Oshawa,L,35,Urban
L1M0A1,L1M,43.967854,-78.950173,Whitby,L,35,Urban
L1N0A1,L1N,43.8862285,-78.9464125,Whitby,L,35,Urban
L1P0A1,L1P,43.903295,-78.971488,Whitby,L,35,Urban
L1R0A1,L1R,43.915806,-78.955802,Whitby,L,35,Urban
L1S0A1,L1S,43.845692,-79.051681,Ajax,L,35,Urban
L1T0A0,L1T,43.875263,-79.053202,Ajax,L,35,Urban
L1V0A1,L1V,43.850457,-79.073087,Pickering,L,35,Urban
L1W0A3,L1W,43.8242265,-79.0814523,Pickering,L,35,Urban
L1X0A1,L1X,43.799667,-79.122654,Pickering,L,35,Urban
L1Y0A1,L1Y,43.954304,-79.109623,Pickering,L,35,Urban
L1Z0A1,L1Z,43.848676,-79.020237,Ajax,L,35,Urban
L2A0A1,L2A,42.894997,-78.932757,Fort Erie,L,35,Urban
L2E0A1,L2E,43.097737,-79.098237,Niagara Falls,L,35,Urban
L2G0A1,L2G,43.08237,-79.110272,Niagara Falls,L,35,Urban
L2H0A1,L2H,43.074909,-79.135566,Niagara Falls,L,35,Urban
L2J0A1,L2J,43.130761,-79.104039,Niagara Falls,L,35,Urban
L2M0A1,L2M,43.20422227,-79.23137004,St Catharines,L,35,Urban
L2N0A1,L2N,43.1934736,-79.2507534,Saint Catharines,L,35,Urban
L2P0A1,L2P,43.162778,-79.271,St Catharines,L,35,Urban
L2R0A2,L2R,43.165638,-79.226332,St Catharines,L,35,Urban
L2S0A1,L2S,43.159864,-79.261614,Saint Catharines,L,35,Urban
L2T0A1,L2T,43.131716,-79.223961,St Catharines,L,35,Urban
L2V0A1,L2V,43.125613,-79.203238,Thorold,L,35,Urban
L2W0A1,L2W,43.173372,-79.273964,Saint Catharines,L,35,Urban
L3B0A1,L3B,42.986595,-79.222533,Welland,L,35,Urban
L3C0A1,L3C,42.99007362,-79.23348395,Welland,L,35,Urban
L3K0A1,L3K,42.9085973,-79.233837,,L,35,Urban
L3M0A1,L3M,43.198349,-79.575385,Grimsby,L,35,Urban
L3P0A1,L3P,43.868809,-79.258642,Markham,L,35,Urban
L3R0A1,L3R,43.841094,-79.325796,Markham,L,35,Urban
L3S0A1,L3S,43.843503,-79.273871,Markham,L,35,Urban
L3T0A1,L3T,43.83942,-79.383136,Thornhill,L,35,Urban
L3V0A0,L3V,44.617553,-79.384879,Atherley,L,35,Urban
L3X1A1,L3X,44.046414,-79.487419,Newmarket,L,35,Urban
L3Y0A1,L3Y,44.083525,-79.430418,Newmarket,L,35,Urban
L3Z0A1,L3Z,44.103624,-79.581364,Bradford,L,35,Urban
L4A0A1,L4A,44.005167,-79.274004,Stouffville,L,35,Urban
L4B0A1,L4B,43.842564,-79.42422,Richmond Hill,L,35,Urban
L4C0A1,L4C,43.895094,-79.437753,Richmond Hill,L,35,Urban
L4E0A1,L4E,43.876508,-79.439539,Richmond Hill,L,35,Urban
L4G0A1,L4G,43.98203029,-79.453035,Aurora,L,35,Urban
L4H0A1,L4H,43.841196,-79.553837,Woodbridge,L,35,Urban
L4J0A1,L4J,43.840436,-79.398165,Thornhill,L,35,Urban
L4K0A1,L4K,43.78938,-79.470753,Concord,L,35,Urban
L4L0A1,L4L,43.79274483,-79.55184653,Woodbridge,L,35,Urban
L4M0A1,L4M,44.359368,-79.613998,Barrie,L,35,Urban
L4N0A1,L4N,44.329443,-79.728398,Barrie,L,35,Urban
L4P0A1,L4P,43.942303,-78.864797,Keswick,L,35,Urban
L4R0A1,L4R,44.739467,-79.860794,Midland,L,35,Urban
L4S0A1,L4S,43.881185,-79.388659,Richmond Hill,L,35,Urban
L4T0A1,L4T,43.682728,-79.678817,Mississauga,L,35,Urban
L4V0A1,L4V,43.689781,-79.613285,Mississauga,L,35,Urban
L4W0A1,L4W,43.645334,-79.616634,Mississauga,L,35,Urban
L4X0A1,L4X,43.616226,-79.57637,Mississauga,L,35,Urban
L4Y0A1,L4Y,43.606689,-79.718544,Mississauga,L,35,Urban
L4Z0A1,L4Z,43.59710458,-79.63519455,Mississauga,L,35,Urban
L5A0A1,L5A,43.5895967,-79.6109049,Mississauga,L,35,Urban
L5B0A1,L5B,43.590454,-79.64859,Mississauga,L,35,Urban
L5C0A1,L5C,43.57307177,-79.64750987,Mississauga,L,35,Urban
L5E1A1,L5E,43.570638,-79.566978,Mississauga,L,35,Urban
L5G0A1,L5G,43.569916,-79.580978,Mississauga,L,35,Urban
L5H0A1,L5H,43.548235,-79.588175,Mississauga,L,35,Urban
L5J0A1,L5J,43.51327,-79.627458,Mississauga,L,35,Urban
L5K1A1,L5K,43.530924,-79.651135,Mississauga,L,35,Urban
L5L0A1,L5L,43.527775,-79.719005,Mississauga,L,35,Urban
L5M0A1,L5M,43.580857,-79.763213,Mississauga,L,35,Urban
L5N0A1,L5N,43.611156,-79.748928,Mississauga,L,35,Urban
L5P1A0,L5P,43.690376,-79.623774,Mississauga,L,35,Urban
L5R0A1,L5R,43.604737,-79.672987,Mississauga,L,35,Urban
L5S0A1,L5S,43.650451,-79.704315,Mississauga,L,35,Urban
L5T0A1,L5T,43.65335,-79.6904,Mississauga,L,35,Urban
L5V0A1,L5V,43.592313,-79.672665,Mississauga,L,35,Urban
L5W0A1,L5W,43.638253,-79.701403,Mississauga,L,35,Urban
L6A0A1,L6A,43.85266323,-79.51173176,Maple,L,35,Urban
L6B0A1,L6B,43.891568,-79.276528,Markham,L,35,Urban
L6C0A1,L6C,43.899636,-79.372206,Markham,L,35,Urban
L6E0A1,L6E,43.90283,-79.2557,Markham,L,35,Urban
L6G0A1,L6G,43.824083,-79.305491,Markham,L,35,Urban
L6H0A1,L6H,43.5090975,-79.6769135,Oakville,L,35,Urban
L6J0A1,L6J,43.453353,-79.6848595,Oakville,L,35,Urban
L6K1A1,L6K,43.440147,-79.668956,Oakville,L,35,Urban
L6L0A1,L6L,43.416713,-79.719604,Oakville,L,35,Urban
L6M0A1,L6M,43.493188,-79.658203,Oakville,L,35,Urban
L6P0A1,L6P,43.790546,-79.735346,Brampton,L,35,Urban
L6R0A1,L6R,43.7807015,-79.769552,Brampton,L,35,Urban
L6S0A1,L6S,43.690755,-79.754729,Brampton,L,35,Urban
L6T0A1,L6T,43.737152,-79.653722,Brampton,L,35,Urban
L6V0A1,L6V,43.705459,-79.761012,Brampton,L,35,Urban
L6W0A1,L6W,43.673992,-79.719723,Brampton,L,35,Urban
L6X0A1,L6X,43.643556,-79.8212775,Brampton,L,35,Urban
L6Y0A1,L6Y,43.634051,-79.754875,Brampton,L,35,Urban
L6Z0A1,L6Z,43.785739,-79.767566,Brampton,L,35,Urban
L7A0A1,L7A,43.66213639,-79.84656707,Brampton,L,35,Urban
L7B1A0,L7B,43.96634,-79.560299,King,L,35,Urban
L7C0A1,L7C,43.894264,-79.842815,Caledon,L,35,Urban
L7E0A1,L7E,43.93028067,-79.80215933,Bolton,L,35,Urban
L7G0A1,L7G,43.649395,-79.937091,Georgetown,L,35,Urban
L7J0A1,L7J,43.610339,-80.040908,Acton,L,35,Urban
L7K0A0,L7K,43.869129,-80.031136,Caledon,L,35,Urban
L7L0A1,L7L,43.388983,-79.768482,Burlington,L,35,Urban
L7M0A1,L7M,43.383338,-79.801135,Burlington,L,35,Urban
L7N0A4,L7N,43.347516,-79.779237,Burlington,L,35,Urban
L7P0A1,L7P,43.3354314,-79.8576828,Burlington,L,35,Urban
L7R0A1,L7R,43.411185,-79.80069,Burlington,L,35,Urban
L7S1A1,L7S,43.303682,-79.798856,Burlington,L,35,Urban
L7T0A1,L7T,43.302024,-79.858916,Burlington,L,35,Urban
L7V1A1,L7V,43.310667,-79.862685,Burlington,L,35,Urban
L8E0A1,L8E,43.210057,-79.682601,Stoney Creek,L,35,Urban
L8G0A2,L8G,43.210092,-79.728979,Stoney Creek,L,35,Urban
L8H1A1,L8H,43.23759,-79.798863,Hamilton,L,35,Urban
L8J0A1,L8J,43.210092,-79.728979,Stoney Creek,L,35,Urban
L8K1A1,L8K,43.243562,-79.82356,Hamilton,L,35,Urban
L8L0A1,L8L,43.262988,-79.822313,Hamilton,L,35,Urban
L8M0A1,L8M,43.241447,-79.833678,Hamilton,L,35,Urban
L8N1A1,L8N,43.256489,-79.868326,Hamilton,L,35,Urban
L8P0A1,L8P,43.257046,-79.901405,Hamilton,L,35,Urban
L8R0A1,L8R,43.256752,-79.865915,Hamilton,L,35,Urban
L8S0A1,L8S,43.256527,-79.873988,Hamilton,L,35,Urban
L8T0C1,L8T,43.217816,-79.829673,Hamilton,L,35,Urban
L8V0A1,L8V,43.232781,-79.857982,Hamilton,L,35,Urban
L8W0A1,L8W,43.197279,-79.844374,Hamilton,L,35,Urban
L9A0A1,L9A,43.216026,-79.879526,Hamilton,L,35,Urban
L9B0A1,L9B,43.212257,-79.893737,Hamilton,L,35,Urban
L9C0A1,L9C,43.216372,-79.894823,Hamilton,L,35,Urban
L9G0A1,L9G,43.214234,-79.994435,Ancaster,L,35,Urban
L9H0A1,L9H,43.265476,-79.957344,Dundas,L,35,Urban
L9J1A0,L9J,43.266235,-79.947135,Dundas,L,35,Urban
L9K0A1,L9K,43.214234,-79.994435,Ancaster,L,35,Urban
L9L0A1,L9L,44.182933,-78.935163,Port Perry,L,35,Urban
L9M0A1,L9M,44.8080274,-79.9334096,Penetanguishene,L,35,Urban
L9N0A1,L9N,44.10508,-79.515033,Holland Landing,L,35,Urban
L9P0A1,L9P,43.9531021,-79.47595403,Uxbridge,L,35,Urban
L9R0A1,L9R,44.16262,-79.863906,Alliston,L,35,Urban
L9S0A1,L9S,44.37535,-79.649452,Innisfil,L,35,Urban
L9T0A1,L9T,43.5216,-79.823571,Milton,L,35,Urban
L9V0A1,L9V,43.941299,-80.103073,Mono,L,35,Urban
L9W0A1,L9W,43.916304,-80.107812,Orangeville,L,35,Urban
L9X1A2,L9X,43.900384,-80.113181,Orangeville,L,35,Urban
L9Y0A0,L9Y,44.490252,-80.254435,Clearview,L,35,Urban
L9Z0A0,L9Z,44.497893,-80.019956,Wasaga Beach,L,35,Urban
M1B0A1,M1B,43.686504,-79.279742,Scarborough,M,35,Urban
M1C0A1,M1C,43.7871,-79.157666,Scarborough,M,35,Urban
M1E0A1,M1E,43.763592,-79.162531,Scarborough,M,35,Urban
M1G0A2,M1G,43.7709921,-79.2169174,Scarborough,M,35,Urban
M1H0A0,M1H,43.770175,-79.239475,Scarborough,M,35,Urban
M1J0A1,M1J,43.740651,-79.239109,Scarborough,M,35,Urban
M1K0A1,M1K,43.7279292,-79.2620294,,M,35,Urban
M1L0A1,M1L,43.713967,-79.281622,Scarborough,M,35,Urban
M1M0A1,M1M,43.724713,-79.228194,Scarborough,M,35,Urban
M1N0A1,M1N,43.692657,-79.2648481,Scarborough,M,35,Urban
M1P0A1,M1P,43.752927,-79.265512,Scarborough,M,35,Urban
M1R0A1,M1R,43.745747,-79.295025,Scarborough,M,35,Urban
M1S0A1,M1S,43.792389,-79.285919,Scarborough,M,35,Urban
M1T0A1,M1T,43.784,-79.304299,Scarborough,M,35,Urban
M1V0A1,M1V,43.812742,-79.245273,Scarborough,M,35,Urban
M1W0A1,M1W,43.800983,-79.319534,Scarborough,M,35,Urban
M1X0A1,M1X,43.815793,-79.238456,Scarborough,M,35,Urban
M2H0A1,M2H,43.798876,-79.343884,North York,M,35,Urban
M2J0A2,M2J,43.7785175,-79.3465557,,M,35,Urban
M2K0A2,M2K,43.764659,-79.396909,North York,M,35,Urban
M2L1A0,M2L,43.745291,-79.387429,Willowdale,M,35,Urban
M2M0A1,M2M,43.787119,-79.417183,North York,M,35,Urban
M2N0A1,M2N,43.767901,-79.412638,North York,M,35,Urban
M2P0A1,M2P,43.745925,-79.394131,North York,M,35,Urban
M2R1A1,M2R,43.766304,-79.426222,North York,M,35,Urban
M3A0A0,M3A,43.754045,-79.335286,North York,M,35,Urban
M3B0A1,M3B,43.74959,-79.357816,North York,M,35,Urban
M3C0A1,M3C,43.731031,-79.341722,North York,M,35,Urban
M3H0A1,M3H,43.787236,-79.469852,North York,M,35,Urban
M3J0B6,M3J,43.765606,-79.493584,North York,M,35,Urban
M3K0A1,M3K,43.7513,-79.46851,North York,M,35,Urban
M3L0A2,M3L,43.732423,-79.511862,North York,M,35,Urban
M3M0A1,M3M,43.72172098,-79.49315286,North York,M,35,Urban
M3N0A1,M3N,43.776077,-79.500711,North York,M,35,Urban
M4A0A1,M4A,43.71897,-79.304501,North York,M,35,Urban
M4B1A0,M4B,43.707331,-79.311655,East York,M,35,Urban
M4C1A1,M4C,43.679896,-79.32196,Toronto,M,35,Urban
M4E1A1,M4E,43.667569,-79.295457,Toronto,M,35,Urban
M4G0A1,M4G,43.678684,-79.498094,East York,M,35,Urban
M4H1A1,M4H,43.701782,-79.357767,Toronto,M,35,Urban
M4J1A1,M4J,43.67129266,-79.34161954,Toronto,M,35,Urban
M4K1A1,M4K,43.666219,-79.352763,Toronto,M,35,Urban
M4L0A1,M4L,43.723057,-79.392486,Toronto,M,35,Urban
M4M1A1,M4M,43.648741,-79.341395,Toronto,M,35,Urban
M4N0A1,M4N,43.717565,-79.385644,North York,M,35,Urban
M4P0A1,M4P,43.657486,-79.362701,Toronto,M,35,Urban
M4R1A1,M4R,43.70663337,-79.39891239,Toronto,M,35,Urban
M4S1A1,M4S,43.697022,-79.392293,Toronto,M,35,Urban
M4T1A1,M4T,43.682291,-79.39002,Toronto,M,35,Urban
M4V1A1,M4V,43.67591,-79.407284,Toronto,M,35,Urban
M4W0A1,M4W,43.67213,-79.37857155,Toronto,M,35,Urban
M4X1A1,M4X,43.664547,-79.370725,Toronto,M,35,Urban
M4Y0A1,M4Y,43.657486,-79.362701,Toronto,M,35,Urban
M5A1A1,M5A,43.638556,-79.347475,Toronto,M,35,Urban
M5B1A1,M5B,43.654252,-79.379609,Toronto,M,35,Urban
M5C1A1,M5C,43.687024,-79.531805,Toronto,M,35,Urban
M5E0A1,M5E,43.650341,-79.371699,Toronto,M,35,Urban
M5G0A1,M5G,43.645495,-79.383101,Toronto,M,35,Urban
M5H1A1,M5H,43.649167,-79.377989,Toronto,M,35,Urban
M5J0A1,M5J,43.640468,-79.388795,Toronto,M,35,Urban
M5K1A0,M5K,43.64922,-79.382302,Toronto,M,35,Urban
M5L1A0,M5L,43.649244,-79.382302,Toronto,M,35,Urban
M5M0A2,M5M,43.7332825,-79.4197497,,M,35,Urban
M5N0A1,M5N,43.709953,-79.41735,Toronto,M,35,Urban
M5P1A1,M5P,43.698054,-79.398694,Toronto,M,35,Urban
M5R1A1,M5R,43.67049,-79.390101,Toronto,M,35,Urban
M5S1A0,M5S,43.666207,-79.39846,Toronto,M,35,Urban
M5T0A1,M5T,43.653338,-79.397234,Toronto,M,35,Urban
M5V0A1,M5V,43.645443,-79.388442,Toronto,M,35,Urban
M5W1A0,M5W,43.650207,-79.375437,Toronto,M,35,Urban
M5X1A0,M5X,43.649318,-79.382302,Toronto,M,35,Urban
M6A0A1,M6A,43.724054,-79.450696,North York,M,35,Urban
M6B0A1,M6B,43.705963,-79.428199,Toronto,M,35,Urban
M6C1A1,M6C,43.682785,-79.419987,Toronto,M,35,Urban
M6E1A1,M6E,43.679419,-79.436418,Toronto,M,35,Urban
M6G1A1,M6G,43.656315,-79.408417,Toronto,M,35,Urban
M6H1A1,M6H,43.65403,-79.4244795,Toronto,M,35,Urban
M6J1A1,M6J,43.643815,-79.406696,Toronto,M,35,Urban
M6K0A1,M6K,43.640732,-79.41473,Toronto,M,35,Urban
M6L1A0,M6L,43.710671,-79.477865,Toronto,M,35,Urban
M6M0A1,M6M,43.68575,-79.48238,Toronto,M,35,Urban
M6N0A1,M6N,43.6731853,-79.4872619,,M,35,Urban
M6P1A1,M6P,43.655819,-79.466216,Toronto,M,35,Urban
M6R1A1,M6R,43.640282,-79.437378,Toronto,M,35,Urban
M6S1A1,M6S,43.635732,-79.467111,Toronto,M,35,Urban
M7A1A1,M7A,43.660745,-79.390285,Toronto,M,35,Urban
M7X1A1,M7X,43.78039,-79.250516,Toronto,M,35,Urban
M7Y1A1,M7Y,43.780589,-79.250516,Toronto,M,35,Urban
M7Z1A1,M7Z,43.780871,-79.250516,Toronto,M,35,Urban
M8V0A1,M8V,43.60574,-79.511461,Etobicoke,M,35,Urban
M8W1A1,M8W,43.590952,-79.521384,Etobicoke,M,35,Urban
M8X0A1,M8X,43.659291,-79.50981,Etobicoke,M,35,Urban
M8Y0A1,M8Y,43.621363,-79.484459,Etobicoke,M,35,Urban
M8Z0A1,M8Z,43.635435,-79.5277115,Etobicoke,M,35,Urban
M9A0A1,M9A,43.644121,-79.529649,Etobicoke,M,35,Urban
M9B0A1,M9B,43.640068,-79.534837,Etobicoke,M,35,Urban
M9C0A1,M9C,43.640353,-79.574384,Etobicoke,M,35,Urban
M9L0A1,M9L,43.758258,-79.544834,North York,M,35,Urban
M9M0A1,M9M,43.750964,-79.547673,North York,M,35,Urban
M9N0A1,M9N,43.70373312,-79.52609967,York,M,35,Urban
M9P0A1,M9P,43.682304,-79.526542,Etobicoke,M,35,Urban
M9R0A1,M9R,43.705143,-79.550809,Etobicoke,M,35,Urban
M9V0A1,M9V,43.741141,-79.589232,Etobicoke,M,35,Urban
M9W0A1,M9W,43.692253,-79.584683,Etobicoke,M,35,Urban
N0A0A0,N0A,42.934677,-79.828537,Haldimand County,N,35,Rural
N0B1A0,N0B,43.772194,-80.658564,Alma,N,35,Rural
N0C1A0,N0C,44.27083,-80.39846,Badjeros,N,35,Rural
N0E1A0,N0E,43.096075,-80.437428,Burford,N,35,Rural
N0G1A0,N0G,43.836718,-80.541188,Arthur,N,35,Rural
N0H0A0,N0H,44.4404469,-81.2518833,,N,35,Rural
N0J1A0,N0J,43.084223,-80.829955,Beachville,N,35,Rural
N0K1A0,N0K,43.583801,-81.235074,Bornholm,N,35,Rural
N0L1A0,N0L,42.789704,-81.683841,Appin,N,35,Rural
N0M0G0,N0M,43.325446,-81.419866,Exeter,N,35,Rural
N0N0N0,N0N,42.956013,-82.170283,Wyoming,N,35,Rural
N0P0P0,N0P,42.503274,-81.953482,Ridgetown,N,35,Rural
N0R1A0,N0R,42.290315,-82.728973,Belle River,N,35,Rural
N1A0A1,N1A,42.91626,-79.59397,Dunnville,N,35,Urban
N1C1A1,N1C,43.501477,-80.238792,Guelph,N,35,Urban
N1E0A1,N1E,43.57421758,-80.21741475,Guelph,N,35,Urban
N1G0A1,N1G,43.531852,-80.21423778,Guelph,N,35,Urban
N1H1A1,N1H,43.552776,-80.283932,Guelph,N,35,Urban
N1K0A1,N1K,43.554499,-80.297034,Guelph,N,35,Urban
N1L0A2,N1L,43.520938,-80.176335,Guelph,N,35,Urban
N1M0A1,N1M,43.696431,-80.384277,Fergus,N,35,Urban
N1P0A1,N1P,43.3299715,-80.2878794,,N,35,Urban
N1R0A2,N1R,43.3399745,-80.3491599,Cambridge,N,35,Urban
N1S0A3,N1S,43.367726,-80.3380213,,N,35,Urban
N1T0A2,N1T,43.3820995,-80.2823063,Cambridge,N,35,Urban
N2A0B8,N2A,43.4421581,-80.4270885,,N,35,Urban
N2B0A2,N2B,43.4631268,-80.4493405,Kitchener,N,35,Urban
N2C0A3,N2C,43.4153698,-80.4493405,,N,35,Urban
N2E0A2,N2E,43.41034,-80.499371,Kitchener,N,35,Urban
N2G0A1,N2G,43.405656,-80.4771,Kitchener,N,35,Urban
N2H0A1,N2H,43.45690358,-80.48029266,Kitchener,N,35,Urban
N2J1A1,N2J,43.46085,-80.508099,Waterloo,N,35,Urban
N2K0A1,N2K,43.495487,-80.493827,Waterloo,N,35,Urban
N2L0A1,N2L,43.476915,-80.549332,Waterloo,N,35,Urban
N2M0P2,N2M,43.432427,-80.509105,Kitchener,N,35,Urban
N2N0A4,N2N,43.4237298,-80.5494007,Kitchener,N,35,Urban
N2P0A1,N2P,43.39749,-80.418729,Kitchener,N,35,Urban
N2R1A1,N2R,43.39631469,-80.45806885,Kitchener,N,35,Urban
N2S1A1,N2S,43.406939,-80.391823,Kitchener,N,35,Urban
N2T0A1,N2T,43.467866,-80.584019,Waterloo,N,35,Urban
N2V0A2,N2V,43.509034,-80.5993854,Waterloo,N,35,Urban
N2Z0A1,N2Z,44.173867,-81.633643,Kincardine,N,35,Urban
N3A0A1,N3A,43.3547881,-80.6992633,,N,35,Urban
N3B0A2,N3B,43.6006661,-80.5549561,,N,35,Urban
N3C0A1,N3C,43.41772578,-80.32455934,Cambridge,N,35,Urban
N3E0A1,N3E,43.4134,-80.374984,Cambridge,N,35,Urban
N3H0A1,N3H,43.419296,-80.3825668,Cambridge,N,35,Urban
N3L0A1,N3L,43.183445,-80.3896,Paris,N,35,Urban
N3P1A1,N3P,43.18794,-80.2449,Brantford,N,35,Urban
N3R0A1,N3R,43.17730884,-80.24821873,Brantford,N,35,Urban
N3S0A1,N3S,43.147287,-80.20927,Brantford,N,35,Urban
N3T0A1,N3T,43.155422,-80.264219,Brantford,N,35,Urban
N3V0A1,N3V,43.138342,-80.25446927,Brantford,N,35,Urban
N3W0A1,N3W,43.061502,-79.965664,Caledonia,N,35,Urban
N3Y0A1,N3Y,44.747223,-79.879642,Midland,N,35,Urban
N4B0A1,N4B,42.850076,-80.494121,Delhi,N,35,Urban
N4G0A1,N4G,42.875414,-80.745849,Tillsonburg,N,35,Urban
N4K0A1,N4K,44.5715,-80.91978,Owen Sound,N,35,Urban
N4L0A1,N4L,44.600191,-80.593827,Meaford,N,35,Urban
N4N0A1,N4N,44.148503,-81.015559,Hanover,N,35,Urban
N4S0A1,N4S,43.116303,-80.761015,Woodstock,N,35,Urban
N4T0A1,N4T,43.149531,-80.72579,Woodstock,N,35,Urban
N4V0A1,N4V,43.111501,-80.749357,Woodstock,N,35,Urban
N4W0A1,N4W,43.74043,-80.95341,Listowel,N,35,Urban
N4X1A1,N4X,43.261025,-81.151572,St Marys,N,35,Urban
N4Z0A1,N4Z,43.347041,-81.003459,Stratford,N,35,Urban
N5A0A1,N5A,43.385095,-80.974109,Stratford,N,35,Urban
N5B4B2,N5B,43.002077,-81.152049,London,N,35,Urban
N5C0A1,N5C,43.036739,-80.883095,Ingersoll,N,35,Urban
N5H0A1,N5H,42.764225,-80.979753,Aylmer,N,35,Urban
N5L1A1,N5L,42.664985,-81.203015,Port Stanley,N,35,Urban
N5P0A1,N5P,42.79434,-81.189892,St Thomas,N,35,Urban
N5R0A1,N5R,42.76807851,-81.15338906,St Thomas,N,35,Urban
N5V0A1,N5V,43.006197,-81.174381,London,N,35,Urban
N5W0A1,N5W,42.9845838,-81.1802619,London,N,35,Urban
N5X0A1,N5X,43.042106,-81.235337,London,N,35,Urban
N5Y0A1,N5Y,43.000014,-81.234169,London,N,35,Urban
N5Z0A1,N5Z,42.972493,-81.209505,London,N,35,Urban
N6A0A1,N6A,42.99241425,-81.25314838,London,N,35,Urban
N6B0A1,N6B,42.98608393,-81.23803053,London,N,35,Urban
N6C0A1,N6C,42.850944,-81.209694,London,N,35,Urban
N6E0A2,N6E,42.918594,-81.224335,London,N,35,Urban
N6G0A1,N6G,42.975176,-81.241366,London,N,35,Urban
N6H0A1,N6H,42.983297,-81.284763,London,N,35,Urban
N6J0A1,N6J,42.939574,-81.274585,London,N,35,Urban
N6K0A1,N6K,42.97239566,-81.36195206,London,N,35,Urban
N6L0A1,N6L,42.881805,-81.249112,London,N,35,Urban
N6M0A1,N6M,42.923086,-81.18148,London,N,35,Urban
N6N0A1,N6N,42.9003527,-81.1526976,,N,35,Urban
N6P0A1,N6P,42.918096,-81.321684,London,N,35,Urban
N7A0A1,N7A,43.747982,-81.70221,Goderich,N,35,Urban
N7G0A1,N7G,42.959982,-81.647228,Strathroy,N,35,Urban
N7L0A1,N7L,42.421783,-82.174542,Chatham,N,35,Urban
N7M0A1,N7M,42.381258,-82.19371,Chatham,N,35,Urban
N7S0A1,N7S,43.00232,-82.35006,Sarnia,N,35,Urban
N7T0A1,N7T,42.97790955,-82.40603483,Sarnia,N,35,Urban
N7V0A2,N7V,42.9946912,-82.394,,N,35,Urban
N7W0A1,N7W,42.981555,-82.32466,Sarnia,N,35,Urban
N7X1A0,N7X,43.0082,-82.285459,Sarnia,N,35,Urban
N8A0A2,N8A,42.600834,-82.381412,Wallaceburg,N,35,Urban
N8H0A1,N8H,42.044614,-82.589241,Leamington,N,35,Urban
N8M0A1,N8M,42.158823,-82.814234,Essex,N,35,Urban
N8N0A1,N8N,42.306595,-82.898595,Sandwich South,N,35,Urban
N8P0A1,N8P,42.31673,-82.895674,Windsor,N,35,Urban
N8R0A1,N8R,42.303548,-82.90324,Windsor,N,35,Urban
N8S0A1,N8S,42.3291877,-82.9447782,,N,35,Urban
N8T0A1,N8T,42.303943,-82.930267,Windsor,N,35,Urban
N8V1A0,N8V,42.276087,-82.941411,Sandwich South,N,35,Urban
N8W0A1,N8W,42.33461,-82.935074,Windsor,N,35,Urban
N8X0A0,N8X,42.288855,-83.018676,Windsor,N,35,Urban
N8Y0A1,N8Y,42.3220287,-82.9877866,Windsor,N,35,Urban
N9A0A1,N9A,42.315958,-83.030978,Windsor,N,35,Urban
N9B0A1,N9B,42.290319,-83.04119,Windsor,N,35,Urban
N9C0A1,N9C,42.273211,-83.076003,Windsor,N,35,Urban
N9E1A0,N9E,42.265806,-83.024713,Windsor,N,35,Urban
N9G0A1,N9G,42.25449,-82.979209,Windsor,N,35,Urban
N9H0A1,N9H,42.243049,-83.055518,Windsor,N,35,Urban
N9J0A1,N9J,42.245672,-83.080835,Windsor,N,35,Urban
N9K0A1,N9K,42.2901,-82.876849,Windsor,N,35,Urban
N9V0A1,N9V,42.145913,-83.099428,Amherstburg,N,35,Urban
N9Y0A1,N9Y,42.042009,-82.729898,Kingsville,N,35,Urban
P0A0A0,P0A,45.54435,-79.464951,Novar,P,35,Rural
P0B0A1,P0B,45.216389,-79.348791,Huntsville,P,35,Rural
P0C0A1,P0C,45.1119922,-79.860152,Mactier,P,35,Rural
P0E0N0,P0E,44.860282,-79.47997,Hydro Glen,P,35,Rural
P0G1A0,P0G,45.90333,-80.57618,Britt,P,35,Rural
P0H1A0,P0H,45.8738,-79.884618,Arnstein,P,35,Rural
P0J0Y0,P0J,47.664314,-80.254687,Charlton,P,35,Rural
P0K1A0,P0K,48.13458,-80.076864,Chaput Hughes,P,35,Rural
P0L1A0,P0L,52.923019,-82.417344,Attawapiskat,P,35,Rural
P0M0S0,P0M,47.870144,-83.055562,Foleyet,P,35,Rural
P0N1A0,P0N,48.446588,-80.816071,Connaught,P,35,Rural
P0P0P0,P0P,45.855235,-82.457297,Grand Manitou Island,P,35,Rural
P0R1A0,P0R,46.184894,-82.822821,Algoma Mills,P,35,Rural
P0S1A0,P0S,46.955114,-84.500462,Batchawana Bay,P,35,Rural
P0T0O0,P0T,49.55515,-89.057658,,P,35,Rural
P0V1A0,P0V,50.240671,-90.202359,Allan Water,P,35,Rural
P0W1A0,P0W,48.777777,-93.962036,Barwick,P,35,Rural
P0X0T0,P0X,49.790534,-93.861543,Kenora,P,35,Rural
P0Y1A0,P0Y,49.785726,-95.116774,Ingolf,P,35,Rural
P1A1A1,P1A,46.30355,-79.462882,North Bay,P,35,Urban
P1B0A1,P1B,46.023865,-79.698461,North Bay,P,35,Urban
P1C0A1,P1C,46.338488,-79.441651,North Bay,P,35,Urban
P1H0A1,P1H,45.439136,-79.287399,Huntsville,P,35,Urban
P1L0A1,P1L,45.019398,-79.17395,Bracebridge,P,35,Urban
P1P0A1,P1P,44.919819,-79.374091,Gravenhurst,P,35,Urban
P2A0A1,P2A,45.345168,-80.007381,Parry Sound,P,35,Urban
P2B0A1,P2B,46.357275,-79.938246,Sturgeon Falls,P,35,Urban
P2N1A1,P2N,48.15236,-80.031421,Kirkland Lake,P,35,Urban
P3A0A1,P3A,46.523664,-80.935641,Sudbury,P,35,Urban
P3B0A2,P3B,46.505264,-80.945,Sudbury,P,35,Urban
P3C1A1,P3C,46.472696,-81.0297,Sudbury,P,35,Urban
P3E0A1,P3E,46.476295,-80.960159,Sudbury,P,35,Urban
P3G0A1,P3G,46.4347445,-80.940708,Sudbury,P,35,Urban
P3L0A1,P3L,46.546068,-80.871744,Garson,P,35,Urban
P3N0A1,P3N,46.611123,-81.022348,Val Caron,P,35,Urban
P3P0A1,P3P,46.645881,-80.985517,Hanmer,P,35,Urban
P3Y0A1,P3Y,46.414072,-81.12673,Lively,P,35,Urban
P4N0A1,P4N,48.472592,-81.404905,Timmins,P,35,Urban
P4P0A1,P4P,48.494826,-81.3446695,Timmins,P,35,Urban
P4R0A1,P4R,48.472592,-81.404905,Timmins,P,35,Urban
P5A0A1,P5A,46.394728,-82.6320645,Elliot Lake,P,35,Urban
P5E1A1,P5E,46.264629,-81.772548,Espanola,P,35,Urban
P5N1A1,P5N,49.4131,-82.419283,Kapuskasing,P,35,Urban
P6A0A2,P6A,46.539485,-84.193015,Sault Ste Marie,P,35,Urban
P6B0A1,P6B,46.552111,-84.324569,Sault Sainte Marie,P,35,Urban
P6C0A1,P6C,46.541378,-84.3597274,Sault Ste Marie,P,35,Urban
P7A0A1,P7A,48.380497,-89.393287,Thunder Bay,P,35,Urban
P7B0A1,P7B,48.419395,-89.274639,Thunder Bay,P,35,Urban
P7C0A1,P7C,48.389207,-89.254222,Thunder Bay,P,35,Urban
P7E0A2,P7E,48.371595,-89.2751955,,P,35,Urban
P7G0A1,P7G,48.397424,-89.309181,Thunder Bay,P,35,Urban
P7J0A1,P7J,48.321658,-89.303001,Thunder Bay,P,35,Urban
P7K0A0,P7K,48.3772315,-89.3869602,Thunder Bay,P,35,Urban
P8N1A1,P8N,49.7852975,-92.838754,Dryden,P,35,Urban
P8T0A1,P8T,50.099358,-91.919986,Sioux Lookout,P,35,Urban
P9A0A1,P9A,48.6176767,-93.4415231,Fort Frances,P,35,Urban
P9N0A1,P9N,49.797562,-92.756396,Kenora,P,35,Urban
R0A0A0,R0A,49.139293,-96.695181,Arbakka,R,46,Rural
R0B0A0,R0B,52.338848,-96.964566,Berens River,R,46,Rural
R0C0A0,R0C,51.185201,-98.338265,Arborg,R,46,Rural
R0E0A0,R0E,49.981576,-96.601077,Anola,R,46,Rural
R0G0A0,R0G,49.468006,-98.448697,Altamont,R,46,Rural
R0H0A0,R0H,50.992077,-98.963262,Alonsa,R,46,Rural
R0J0A0,R0J,50.73567,-100.928028,Angusville,R,46,Rural
R0K0A0,R0K,49.779814,-100.211962,Alexander,R,46,Rural
R0L0A0,R0L,51.326668,-100.474513,Ashville,R,46,Rural
R0M0A0,R0M,49.557104,-100.811955,Belleview,R,46,Rural
R1A0A1,R1A,50.12726,-96.89495,Saint Andrews,R,46,Urban
R1B1A1,R1B,50.08244913,-96.93296802,Lockport,R,46,Urban
R1N0A0,R1N,49.96411,-98.313692,Portage La Prairie,R,46,Urban
R2C0A0,R2C,49.889849,-97.014233,Winnipeg,R,46,Urban
R2E0A0,R2E,49.978789,-97.014337,East St. Paul,R,46,Urban
R2G0A1,R2G,49.93907,-97.096339,Winnipeg,R,46,Urban
R2H0A0,R2H,49.88451,-97.119182,Winnipeg,R,46,Urban
R2J0A0,R2J,49.869293,-97.063252,Springfield,R,46,Urban
R2K0A1,R2K,49.93785891,-97.09722665,Winnipeg,R,46,Urban
R2L0A0,R2L,49.906811,-97.097289,Saint Boniface,R,46,Urban
R2M0A0,R2M,49.83709,-97.109397,Winnipeg,R,46,Urban
R2N0A1,R2N,49.814466,-97.076798,Winnipeg,R,46,Urban
R2P0A1,R2P,49.941332,-97.166071,Winnipeg,R,46,Urban
R2R0A1,R2R,49.9172,-97.200224,Winnipeg,R,46,Urban
R2V0A1,R2V,49.93595,-97.145768,Winnipeg,R,46,Urban
R2W0A1,R2W,49.926841,-97.112877,Winnipeg,R,46,Urban
R2X0A0,R2X,49.931699,-97.170525,Winnipeg,R,46,Urban
R2Y0A1,R2Y,49.882461,-97.31934,Winnipeg,R,46,Urban
R3A0A0,R3A,49.903421,-97.147651,Winnipeg,R,46,Urban
R3B0A0,R3B,49.897668,-97.136594,Winnipeg,R,46,Urban
R3C0A0,R3C,49.891685,-97.143809,Winnipeg,R,46,Urban
R3E0A0,R3E,49.909072,-97.17666,Brooklands,R,46,Urban
R3G0A0,R3G,49.887242,-97.181581,Winnipeg,R,46,Urban
R3H0A0,R3H,49.910995,-97.23733,Saint James,R,46,Urban
R3J0A1,R3J,49.87501,-97.209844,Winnipeg,R,46,Urban
R3K0A1,R3K,49.86559029,-97.29009533,Winnipeg,R,46,Urban
R3L0A0,R3L,49.868435,-97.134884,Winnipeg,R,46,Urban
R3M0A0,R3M,49.863856,-97.165011,Winnipeg,R,46,Urban
R3N0A0,R3N,49.862971,-97.197778,Winnipeg,R,46,Urban
R3P0A1,R3P,49.865111,-97.211274,Winnipeg,R,46,Urban
R3R0A1,R3R,49.8718275,-97.252789,Winnipeg,R,46,Urban
R3S0A1,R3S,49.846828,-97.210909,Winnipeg,R,46,Urban
R3T0A0,R3T,49.813236,-97.153605,Winnipeg,R,46,Urban
R3V0A1,R3V,49.744346,-97.180472,Winnipeg,R,46,Urban
R3W0A1,R3W,49.919161,-97.035339,Winnipeg,R,46,Urban
R3X0A1,R3X,49.8292,-97.064482,Winnipeg,R,46,Urban
R3Y0A1,R3Y,49.806208,-97.189802,Winnipeg,R,46,Urban
R4A0A1,R4A,49.996261,-97.095272,West St Paul,R,46,Urban
R4H0A1,R4H,49.896886,-97.310897,Winnipeg,R,46,Urban
R4J1A0,R4J,49.852596,-97.42614,Headingley,R,46,Urban
R4K1A0,R4K,49.888435,-97.55185,Cartier,R,46,Urban
R4L0A1,R4L,49.954107,-97.609838,St Francois Xavier,R,46,Urban
R5A0A1,R5A,49.673777,-97.092476,Grande Pointe,R,46,Urban
R5G0A1,R5G,49.527809,-96.699699,Steinbach,R,46,Urban
R5H0A1,R5H,49.6756602,-96.6254122,,R,46,Urban
R6M0A1,R6M,49.191026,-98.107371,Morden,R,46,Urban
R6W0A1,R6W,49.18484,-97.953921,Winkler,R,46,Urban
R7A0A0,R7A,49.834172,-99.954719,Brandon,R,46,Urban
R7B0A1,R7B,49.851879,-99.961822,Brandon,R,46,Urban
R7C0A2,R7C,49.8726161,-99.970807,,R,46,Urban
R7N0A1,R7N,51.161741,-100.049077,Dauphin,R,46,Urban
R8A0A1,R8A,54.780436,-101.85007,Flin Flon (Part),R,46,Urban
R8N0A0,R8N,55.756322,-97.850001,Thompson,R,46,Urban
R9A0A1,R9A,53.818523,-101.262116,The Pas,R,46,Urban
S0A0A0,S0A,50.615061,-103.412753,Abernethy,S,47,Rural
S0C0A0,S0C,49.452733,-102.096682,Alameda,S,47,Rural
S0E0A0,S0E,53.149926,-103.428398,Arborfield,S,47,Rural
S0G0A0,S0G,50.642378,-104.212279,Avonhurst,S,47,Rural
S0H0A0,S0H,49.939387,-105.84708,Ardill,S,47,Rural
S0J0A0,S0J,53.352513,-105.525018,Albertville,S,47,Rural
S0K0A0,S0K,52.218103,-106.23886,Aberdeen,S,47,Rural
S0L0A0,S0L,51.37582,-109.990434,Alsask,S,47,Rural
S0M0A0,S0M,52.916499,-107.552999,Alticane,S,47,Rural
S0N0A0,S0N,50.678249,-109.142885,Abbey,S,47,Rural
S0P0A0,S0P,54.754195,-101.893728,Creighton,S,47,Rural
S2V1A1,S2V,50.781679,-104.939758,Buena Vista,S,47,Urban
S3N0A0,S3N,51.213789,-102.468124,Yorkton,S,47,Urban
S4A0A0,S4A,49.141258,-102.982129,Estevan,S,47,Urban
S4H0A0,S4H,49.658893,-103.853192,Weyburn,S,47,Urban
S4L0A1,S4L,50.443461,-104.361999,White City,S,47,Urban
S4N0A0,S4N,50.463128,-104.565816,Regina,S,47,Urban
S4P0A0,S4P,50.450099,-104.612241,Regina,S,47,Urban
S4R0A0,S4R,50.475984,-104.627726,Regina,S,47,Urban
S4S0A0,S4S,50.422512,-104.585443,Regina,S,47,Urban
S4T0A1,S4T,50.469099,-104.649479,Regina,S,47,Urban
S4V0A0,S4V,50.430966,-104.550118,Regina,S,47,Urban
S4W0A1,S4W,50.436899,-104.646835,Regina,S,47,Urban
S4X0A1,S4X,50.41230162,-104.6457166,Regina,S,47,Urban
S4Y0A1,S4Y,50.440223,-104.536361,Regina,S,47,Urban
S4Z1A0,S4Z,50.45396,-104.533489,Regina,S,47,Urban
S6H0A0,S6H,50.381117,-105.541165,Moose Jaw,S,47,Urban
S6J0A1,S6J,50.42019,-105.55459,Moose Jaw,S,47,Urban
S6K0A1,S6K,50.37754,-105.58728,Moose Jaw,S,47,Urban
S6V0A0,S6V,53.216612,-105.667143,Prince Albert,S,47,Urban
S6W1A0,S6W,53.177666,-105.761158,Prince Albert,S,47,Urban
S6X0A1,S6X,53.1900492,-105.7000835,Prince Albert,S,47,Urban
S7H0A1,S7H,52.121818,-106.646319,Saskatoon,S,47,Urban
S7J0A1,S7J,52.106303,-106.667955,Saskatoon,S,47,Urban
S7K0A0,S7K,52.156891,-106.64315,Saskatoon,S,47,Urban
S7L0A0,S7L,52.154424,-106.708143,Saskatoon,S,47,Urban
S7M0A0,S7M,52.115878,-106.711812,Saskatoon,S,47,Urban
S7N0A1,S7N,52.115719,-106.669759,Saskatoon,S,47,Urban
S7P0A1,S7P,52.193799,-106.670134,Saskatoon,S,47,Urban
S7R0A1,S7R,52.151856,-106.731772,Saskatoon,S,47,Urban
S7S0A1,S7S,52.147749,-106.572292,Saskatoon,S,47,Urban
S7T0A1,S7T,52.13142,-106.64594,Saskatoon,S,47,Urban
S7V0A1,S7V,52.1098,-106.558204,Saskatoon,S,47,Urban
S7W0A1,S7W,52.143944,-106.558684,Saskatoon,S,47,Urban
S9A0A0,S9A,52.784784,-108.30344,North Battleford,S,47,Urban
S9H0A0,S9H,50.287886,-107.795415,Swift Current,S,47,Urban
S9V0A0,S9V,53.277178,-109.985045,Lloydminster,S,47,Urban
S9X1A0,S9X,54.123455,-108.437091,Meadow Lake,S,47,Urban
T0A0A0,T0A,54.197541,-113.038456,Abee,T,48,Rural
T0B0A0,T0B,52.462815,-111.333319,Alliance,T,48,Rural
T0C0A0,T0C,52.931262,-114.941364,Wolf Creek,T,48,Rural
T0E0A0,T0E,53.677245,-114.350812,Alberta Beach,T,48,Rural
T0G0A0,T0G,53.936696,-113.780916,Alcomdale,T,48,Rural
T0H0A0,T0H,55.780686,-119.91315,Bay Tree,T,48,Rural
T0J0A0,T0J,51.157007,-110.206392,Acadia Valley,T,48,Rural
T0K0A0,T0K,49.118254,-110.933374,Aden,T,48,Rural
T0L0A0,T0L,50.682042,-113.84573,Aldersyde,T,48,Rural
T0M0A0,T0M,51.607665,-113.67335,Acme,T,48,Rural
T0N1A0,T0N,53.517327,-113.427973,Edmonton,T,48,Rural
T0P0H0,T0P,57.641005,-111.97712,Fort Mackay,T,48,Rural
T0V0H0,T0V,59.865216,-111.62956,Fort Smith,T,48,Rural
T1A0A0,T1A,50.032669,-110.673137,Medicine Hat,T,48,Urban
T1B0A1,T1B,50.009722,-110.657978,Medicine Hat,T,48,Urban
T1C0A1,T1C,50.058981,-110.734138,Medicine Hat,T,48,Urban
T1G0A1,T1G,49.785299,-112.147016,Taber,T,48,Urban
T1H0A1,T1H,49.699101,-112.823912,Lethbridge,T,48,Urban
T1J0A0,T1J,49.677557,-112.846214,Lethbridge,T,48,Urban
T1K0A1,T1K,49.683606,-112.834015,Lethbridge,T,48,Urban
T1L0L5,T1L,51.177527,-115.56775,Improvement District,T,48,Urban
T1M0A1,T1M,49.726088,-112.620169,Coaldale,T,48,Urban
T1P0A1,T1P,51.048643,-113.391355,Strathmore,T,48,Urban
T1R0A0,T1R,50.563777,-111.886198,Brooks,T,48,Urban
T1S0A1,T1S,50.723669,-113.972817,Okotoks,T,48,Urban
T1V0A1,T1V,50.590649,-113.891988,High River,T,48,Urban
T1W0A1,T1W,51.078804,-115.272283,Canmore,T,48,Urban
T1X0A2,T1X,51.030973,-113.826206,Chestermere,T,48,Urban
T1Y0A2,T1Y,51.011329,-113.935093,Calgary,T,48,Urban
T2A0A0,T2A,51.026071,-113.936391,Calgary,T,48,Urban
T2B0A1,T2B,51.025265,-114.10453,Calgary,T,48,Urban
T2C0A0,T2C,50.980531,-113.971354,Calgary,T,48,Urban
T2E0A0,T2E,51.128816,-114.023391,,T,48,Urban
T2G0A0,T2G,51.02854,-114.037601,Calgary,T,48,Urban
T2H0A0,T2H,50.972775,-114.072363,Calgary,T,48,Urban
T2J0A0,T2J,50.930922,-114.0466,Calgary,T,48,Urban
T2K0A1,T2K,51.07979,-114.07884,Calgary,T,48,Urban
T2L0A0,T2L,51.085251,-114.108412,Calgary,T,48,Urban
T2M0A1,T2M,51.058115,-114.063896,Calgary,T,48,Urban
T2N0A1,T2N,51.056553,-114.078538,Calgary,T,48,Urban
T2P0A0,T2P,51.048903,-114.075424,Calgary,T,48,Urban
T2R0A0,T2R,51.043337,-114.085241,Calgary,T,48,Urban
T2S0A0,T2S,51.024768,-114.074505,Calgary,T,48,Urban
T2T0A0,T2T,51.023425,-114.099089,Calgary,T,48,Urban
T2V0A0,T2V,50.984655,-114.103538,Calgary,T,48,Urban
T2W0A0,T2W,50.948462,-114.104692,Calgary,T,48,Urban
T2X0A1,T2X,50.911675,-114.061786,Calgary,T,48,Urban
T2Y0A1,T2Y,50.91611,-114.110995,Calgary,T,48,Urban
T2Z0A1,T2Z,50.936023,-113.970781,Calgary,T,48,Urban
T3A0A1,T3A,51.082069,-114.142197,Calgary,T,48,Urban
T3B0A1,T3B,51.083833,-114.263415,Calgary,T,48,Urban
T3C0A0,T3C,51.050022,-114.12605,Calgary,T,48,Urban
T3E0A0,T3E,51.012321,-114.13309,Calgary,T,48,Urban
T3G0A1,T3G,51.13928,-114.224807,Calgary,T,48,Urban
T3H0A1,T3H,51.046751,-114.187668,Calgary,T,48,Urban
T3J0A1,T3J,51.122845,-113.934726,Calgary,T,48,Urban
T3K0A1,T3K,51.156807,-114.084905,Calgary,T,48,Urban
T3L0A1,T3L,51.126753,-114.245934,Calgary,T,48,Urban
T3M0A1,T3M,50.893385,-113.990565,Calgary,T,48,Urban
T3N0A1,T3N,51.07521036,-114.1129937,Calgary,T,48,Urban
T3P0A1,T3P,51.166322,-114.116745,Calgary,T,48,Urban
T3R0A1,T3R,51.156683,-114.161815,Calgary,T,48,Urban
T3Z0A1,T3Z,51.053386,-114.363302,Calgary,T,48,Urban
T4A0A1,T4A,51.294143,-114.011291,Airdrie,T,48,Urban
T4B0A1,T4B,51.273631,-114.01684,Airdrie,T,48,Urban
T4C0A1,T4C,51.303214,-114.428115,Cochrane,T,48,Urban
T4E0A0,T4E,52.189836,-113.613731,Penhold,T,48,Urban
T4G0A1,T4G,52.027545,-113.950217,Innisfail,T,48,Urban
T4H0A2,T4H,51.791826,-114.119008,Olds,T,48,Urban
T4J0A0,T4J,52.67549,-113.584833,Ponoka,T,48,Urban
T4L0A1,T4L,52.466888,-113.711204,Lacombe,T,48,Urban
T4N0A0,T4N,52.267021,-113.81906,Red Deer,T,48,Urban
T4P0A1,T4P,52.309012,-113.841713,Red Deer,T,48,Urban
T4R0A1,T4R,52.271374,-113.767843,Red Deer,T,48,Urban
T4S0A1,T4S,52.309212,-114.104667,Sylvan Lake,T,48,Urban
T4T0A0,T4T,52.373339,-114.921582,Rocky Mountain House,T,48,Urban
T4V0A1,T4V,53.00904,-112.832589,Camrose,T,48,Urban
T4X0A1,T4X,53.364222,-113.418785,Beaumont,T,48,Urban
T5A0A0,T5A,53.596599,-113.409165,Edmonton,T,48,Urban
T5B0A1,T5B,53.559959,-113.448819,Edmonton,T,48,Urban
T5C0A1,T5C,53.586935,-113.439102,Edmonton,T,48,Urban
T5E0A1,T5E,53.584982,-113.46878,Edmonton,T,48,Urban
T5G0A0,T5G,53.561128,-113.489301,Edmonton,T,48,Urban
T5H0A1,T5H,53.547915,-113.505021,Edmonton,T,48,Urban
T5J0A1,T5J,53.53895186,-113.495571,Edmonton,T,48,Urban
T5K0A1,T5K,53.531225,-113.491707,Edmonton,T,48,Urban
T5L0A1,T5L,53.584987,-113.5744,Edmonton,T,48,Urban
T5M0A1,T5M,53.553787,-113.536737,Edmonton,T,48,Urban
T5N0A1,T5N,53.53198148,-113.5613259,Edmonton,T,48,Urban
T5P0A1,T5P,53.53165086,-113.5814093,Edmonton,T,48,Urban
T5R0A1,T5R,53.516947,-113.544444,Edmonton,T,48,Urban
T5S0A1,T5S,53.635585,-113.514289,Edmonton,T,48,Urban
T5T0A1,T5T,53.51467,-113.619286,Edmonton,T,48,Urban
T5V0A0,T5V,53.607402,-113.61658,St Albert,T,48,Urban
T5W0A1,T5W,53.5559595,-113.3905677,Edmonton,T,48,Urban
T5X0A1,T5X,53.613435,-113.540573,Edmonton,T,48,Urban
T5Y0A1,T5Y,53.494426,-113.629958,Edmonton,T,48,Urban
T5Z0A1,T5Z,53.525302,-113.627937,Edmonton,T,48,Urban
T6A0A0,T6A,53.540597,-113.428093,Edmonton,T,48,Urban
T6B0A1,T6B,53.505068,-113.43691,Edmonton,T,48,Urban
T6C0A1,T6C,53.504786,-113.454254,Edmonton,T,48,Urban
T6E0A1,T6E,53.474142,-113.48272,Edmonton,T,48,Urban
T6G0A1,T6G,53.507518,-113.512181,Edmonton,T,48,Urban
T6H0A1,T6H,53.483105,-113.501306,Edmonton,T,48,Urban
T6J0A1,T6J,53.469041,-113.50904,Edmonton,T,48,Urban
T6K0A1,T6K,53.471636,-113.460729,Edmonton,T,48,Urban
T6L0A1,T6L,53.462727,-113.414125,Edmonton,T,48,Urban
T6M0A1,T6M,53.485626,-113.641234,Edmonton,T,48,Urban
T6N0A1,T6N,53.451395,-113.486854,Edmonton,T,48,Urban
T6P0A1,T6P,53.501743,-113.375797,Edmonton,T,48,Urban
T6R0A1,T6R,53.454913,-113.58328,Edmonton,T,48,Urban
T6S1A0,T6S,53.580673,-113.339598,Edmonton,T,48,Urban
T6T0A1,T6T,53.465222,-113.38445,Edmonton,T,48,Urban
T6V0A1,T6V,53.613825,-113.559993,Edmonton,T,48,Urban
T6W0A1,T6W,53.458807,-113.545485,Edmonton,T,48,Urban
T6X0A1,T6X,53.428545,-113.452981,Edmonton,T,48,Urban
T7A0A1,T7A,53.215296,-114.964646,Drayton Valley,T,48,Urban
T7E0A1,T7E,53.5760465,-116.4486227,Edson,T,48,Urban
T7N0A1,T7N,54.131066,-114.39891,Barrhead,T,48,Urban
T7P0A1,T7P,54.14958,-113.86304,Westlock,T,48,Urban
T7S0A1,T7S,54.135658,-115.663906,Whitecourt,T,48,Urban
T7V0A1,T7V,53.403032,-117.58768,Hinton,T,48,Urban
T7X0A0,T7X,53.541562,-113.83261,Spruce Grove,T,48,Urban
T7Y1A1,T7Y,53.541457,-113.885382,Spruce Grove,T,48,Urban
T7Z0A1,T7Z,53.534333,-113.968461,Stony Plain,T,48,Urban
T8A0A1,T8A,53.52634,-113.288398,Sherwood Park,T,48,Urban
T8B0A2,T8B,53.50330537,-113.3198372,Sherwood Park,T,48,Urban
T8C0X5,T8C,53.436001,-113.198709,Big Island Lake,T,48,Urban
T8E1A1,T8E,53.44237829,-113.0496153,Sherwood Park,T,48,Urban
T8G0A1,T8G,53.455345,-112.974099,Improvement District,T,48,Urban
T8H0A1,T8H,53.546075,-113.320076,Sherwood Park,T,48,Urban
T8L0A1,T8L,53.68333449,-113.2232348,Fort Saskatchewan,T,48,Urban
T8N0A1,T8N,53.641969,-113.614612,St Albert,T,48,Urban
T8R0A1,T8R,53.796689,-113.657142,Morinville,T,48,Urban
T8S0A1,T8S,56.24065546,-117.2866409,Peace River,T,48,Urban
T8V0A1,T8V,55.1569775,-118.791943,Grande Prairie,T,48,Urban
T8W0A1,T8W,55.154004,-118.84545,Grande Prairie,T,48,Urban
T8X0A1,T8X,55.168177,-118.767373,Grande Prairie,T,48,Urban
T9A0A1,T9A,52.95988069,-113.3714858,Wetaskiwin,T,48,Urban
T9C0A1,T9C,53.492109,-112.055876,Vegreville,T,48,Urban
T9E0A1,T9E,53.260627,-113.543793,Leduc,T,48,Urban
T9G0A1,T9G,53.3499064,-113.7330482,Devon,T,48,Urban
T9H0A1,T9H,56.69144,-111.278157,Fort Mcmurray,T,48,Urban
T9J0A4,T9J,56.716238,-111.375807,Fort Mcmurray,T,48,Urban
T9K0A1,T9K,56.759436,-111.601895,Fort Mcmurray,T,48,Urban
T9M0A1,T9M,54.47499017,-110.1943776,Cold Lake,T,48,Urban
T9N0A0,T9N,54.18034,-110.732688,Gurneyville,T,48,Urban
T9S0A1,T9S,54.69907029,-113.2995819,Athabasca,T,48,Urban
T9V0A1,T9V,53.276903,-110.007855,Lloydminster,T,48,Urban
T9W0A1,T9W,52.833538,-110.851593,Wainwright,T,48,Urban
T9X0A1,T9X,53.349527,-110.859463,Vermilion,T,48,Urban
V0A0A0,V0A,50.95901,-116.595716,Galena,V,59,Rural
V0B1A0,V0B,49.453918,-116.762953,Boswell,V,59,Rural
V0C1A0,V0C,56.247764,-120.849128,Fort St. John,V,59,Rural
V0E0E0,V0E,51.425168,-119.177261,Seymour Arm,V,59,Rural
V0G1A0,V0G,49.73321,-116.913045,Ainsworth Hot Springs,V,59,Rural
V0H0V1,V0H,49.638781,-119.078185,Carmi,V,59,Rural
V0J0J0,V0J,55.4083418,-126.3617916,,V,59,Rural
V0K1A0,V0K,50.737198,-121.271279,Ashcroft,V,59,Rural
V0L1A0,V0L,52.401828,-124.022594,Alexis Creek,V,59,Rural
V0M1A0,V0M,49.263553,-121.720197,Agassiz,V,59,Rural
V0N0N0,V0N,49.870966,-125.226621,Comox-Strathcona,V,59,Rural
V0P1A0,V0P,50.897997,-124.863258,Big Bay,V,59,Rural
V0R0A2,V0R,49.508044,-125.138119,Cumberland,V,59,Rural
V0S1A0,V0S,48.578805,-123.463671,Brentwood Bay,V,59,Rural
V0T1A0,V0T,54.79916,-130.078208,Alice Arm,V,59,Rural
V0V0V0,V0V,54.213799,-129.97028,Prince Rupert,V,59,Rural
V0W1A0,V0W,59.480782,-133.631242,Atlin,V,59,Rural
V0X1A0,V0X,49.053824,-122.47603,Aldergrove,V,59,Rural
V1A0A1,V1A,49.67476,-115.978274,Kimberley,V,59,Urban
V1B1A0,V1B,50.258666,-119.216798,North Okanagan,V,59,Urban
V1C0A1,V1C,49.513874,-115.758079,Cranbrook,V,59,Urban
V1E0A1,V1E,50.69626441,-119.2837159,Salmon Arm,V,59,Urban
V1G0A1,V1G,55.774586,-120.255027,Dawson Creek,V,59,Urban
V1H0H5,V1H,50.262628,-119.358463,Okanagan Landing,V,59,Urban
V1J0A1,V1J,56.25654945,-120.8290528,Fort St John,V,59,Urban
V1K0A1,V1K,50.169099,-120.644983,Merritt,V,59,Urban
V1L1A0,V1L,49.495202,-117.28617,Nelson,V,59,Urban
V1M0A1,V1M,49.176952,-122.657371,Langley,V,59,Urban
V1N0V1,V1N,49.3246795,-117.7510633,Castlegar,V,59,Urban
V1P1A0,V1P,49.928691,-119.321882,Central Okanagan,V,59,Urban
V1R1A1,V1R,49.11359258,-117.7155936,Trail,V,59,Urban
V1S0A1,V1S,50.64206,-120.391567,Kamloops,V,59,Urban
V1T1A1,V1T,50.252786,-119.278816,Vernon,V,59,Urban
V1V1A1,V1V,49.926785,-119.468925,Kelowna,V,59,Urban
V1W1A1,V1W,49.841296,-119.488465,Kelowna,V,59,Urban
V1X1A1,V1X,49.875525,-119.393202,Kelowna,V,59,Urban
V1Y1A0,V1Y,49.887305,-119.471178,Kelowna,V,59,Urban
V1Z0A0,V1Z,49.959829,-119.539156,Okanagan Lake,V,59,Urban
V2A1A0,V2A,49.493313,-119.574329,Penticton,V,59,Urban
V2B0A1,V2B,50.700287,-120.368389,Kamloops,V,59,Urban
V2C0A1,V2C,50.67480702,-120.3287852,Kamloops,V,59,Urban
V2E0A1,V2E,50.66075434,-120.397324,Kamloops,V,59,Urban
V2G0A1,V2G,52.148346,-122.126165,Williams Lake,V,59,Urban
V2H0A1,V2H,50.688215,-120.313913,Kamloops,V,59,Urban
V2J0A1,V2J,52.97169,-122.489204,Quesnel,V,59,Urban
V2K0A1,V2K,53.947161,-122.750355,Prince George,V,59,Urban
V2L0A1,V2L,53.912515,-122.747907,Prince George,V,59,Urban
V2M0A1,V2M,53.910278,-122.782095,Prince George,V,59,Urban
V2N0A3,V2N,53.893328,-122.774616,Prince George,V,59,Urban
V2P0A1,V2P,49.154859,-121.947523,Chilliwack,V,59,Urban
V2R0A1,V2R,49.108325,-121.96568,Chilliwack,V,59,Urban
V2S0A1,V2S,49.066083,-122.33716,Abbotsford,V,59,Urban
V2T0A1,V2T,49.07627,-122.345756,Abbotsford,V,59,Urban
V2V0A2,V2V,49.159213,-122.312134,Mission,V,59,Urban
V2W0A1,V2W,49.195599,-122.534705,Maple Ridge,V,59,Urban
V2X0A1,V2X,49.2272,-122.653734,Maple Ridge,V,59,Urban
V2Y0A1,V2Y,49.151935,-122.672486,Langley,V,59,Urban
V2Z0A1,V2Z,49.051706,-122.6044761,Langley,V,59,Urban
V3A0A1,V3A,49.07509,-122.624838,Langley,V,59,Urban
V3B0A1,V3B,49.278358,-122.765181,Port Coquitlam,V,59,Urban
V3C0A1,V3C,49.259041,-122.782692,Port Coquitlam,V,59,Urban
V3E0A1,V3E,49.27947,-122.818483,Coquitlam,V,59,Urban
V3G0A1,V3G,49.071252,-122.24025,Abbotsford,V,59,Urban
V3H0A1,V3H,49.310591,-122.871225,Port Moody,V,59,Urban
V3J0A1,V3J,49.25398,-122.889906,Coquitlam,V,59,Urban
V3K0A1,V3K,49.24223633,-122.8781921,Coquitlam,V,59,Urban
V3L0A2,V3L,49.228,-122.901175,New Westminster,V,59,Urban
V3M0A1,V3M,49.18699768,-122.9452669,New Westminster,V,59,Urban
V3N0A1,V3N,49.207245,-122.964685,Burnaby,V,59,Urban
V3P1A1,V3P,49.335312,-122.737781,Coquitlam,V,59,Urban
V3R0A0,V3R,49.191361,-122.824854,Surrey,V,59,Urban
V3S0A0,V3S,49.081027,-122.750474,Surrey,V,59,Urban
V3T0A1,V3T,49.191441,-122.846721,Surrey,V,59,Urban
V3V0A1,V3V,49.171615,-122.871271,Surrey,V,59,Urban
V3W0A0,V3W,49.14043,-122.856814,Surrey,V,59,Urban
V3X0A1,V3X,49.093593,-122.869704,Surrey,V,59,Urban
V3Y0A1,V3Y,49.2265189,-122.6755264,Pitt Meadows,V,59,Urban
V3Z1A1,V3Z,49.23734,-122.655904,Maple Ridge,V,59,Urban
V4A0A1,V4A,49.032157,-122.821319,Surrey,V,59,Urban
V4B0A1,V4B,49.029212,-122.809398,White Rock,V,59,Urban
V4C0A6,V4C,49.1536517,-122.9057947,North Delta,V,59,Urban
V4E0A1,V4E,49.121574,-122.9086916,Delta,V,59,Urban
V4G0A1,V4G,49.134231,-123.018862,Delta,V,59,Urban
V4K0A1,V4K,49.090259,-123.068412,Delta,V,59,Urban
V4L0A1,V4L,49.03447,-123.068564,Delta,V,59,Urban
V4M0A1,V4M,49.002492,-123.083421,Delta,V,59,Urban
V4N0A1,V4N,49.193932,-122.778577,Surrey,V,59,Urban
V4P0A1,V4P,49.05233144,-122.7974841,Surrey,V,59,Urban
V4R0A1,V4R,49.234977,-122.586953,Maple Ridge,V,59,Urban
V4S0A1,V4S,49.197032,-122.360342,Mission,V,59,Urban
V4T1A0,V4T,49.837676,-119.64688,Westbank,V,59,Urban
V4V1A0,V4V,50.071982,-119.395702,Lake Country,V,59,Urban
V4W0A1,V4W,49.062679,-122.462538,Langley,V,59,Urban
V4X0A1,V4X,49.07438,-122.320802,Abbotsford,V,59,Urban
V4Z0A1,V4Z,49.144403,-121.848172,Chilliwack,V,59,Urban
V5A0A1,V5A,49.279756,-122.906471,Burnaby,V,59,Urban
V5B0A1,V5B,49.274911,-122.981261,Burnaby,V,59,Urban
V5C0A1,V5C,49.264374,-123.011856,Burnaby,V,59,Urban
V5E0A1,V5E,49.22069,-122.95478,Burnaby,V,59,Urban
V5G0A1,V5G,49.256531,-123.013818,Burnaby,V,59,Urban
V5H0A1,V5H,49.229783,-122.998641,Burnaby,V,59,Urban
V5J0A1,V5J,49.215369,-122.982632,Burnaby,V,59,Urban
V5K0A1,V5K,49.289956,-123.040784,Vancouver,V,59,Urban
V5L0A1,V5L,49.27629,-123.062083,Vancouver,V,59,Urban
V5M0A1,V5M,49.265557,-123.03227,Vancouver,V,59,Urban
V5N0A1,V5N,49.242935,-123.071646,Vancouver,V,59,Urban
V5P0A1,V5P,49.210492,-123.065699,Vancouver,V,59,Urban
V5R0A1,V5R,49.234216,-123.026393,Vancouver,V,59,Urban
V5S0A1,V5S,49.220137,-123.036709,Vancouver,V,59,Urban
V5T0A1,V5T,49.264659,-123.100399,Vancouver,V,59,Urban
V5V0A1,V5V,49.255454,-123.09386,Vancouver,V,59,Urban
V5W0A1,V5W,49.226934,-123.090798,Vancouver,V,59,Urban
V5X0A1,V5X,49.222728,-123.10177,Vancouver,V,59,Urban
V5Y0A1,V5Y,49.265573,-123.112771,Vancouver,V,59,Urban
V5Z0A1,V5Z,49.26502552,-123.1162762,Vancouver,V,59,Urban
V6A0A1,V6A,49.2761866,-123.1023742,Vancouver,V,59,Urban
V6B0A0,V6B,49.27983,-123.117476,Vancouver,V,59,Urban
V6C0A1,V6C,49.289005,-123.120745,Vancouver,V,59,Urban
V6E0A1,V6E,49.286401,-123.122177,Vancouver,V,59,Urban
V6G0A1,V6G,49.290564,-123.130648,Vancouver,V,59,Urban
V6H0A2,V6H,49.257822,-123.074574,Vancouver,V,59,Urban
V6J0A1,V6J,49.174354,-122.852699,Vancouver,V,59,Urban
V6K0A1,V6K,49.26467155,-123.1624109,Vancouver,V,59,Urban
V6L0A1,V6L,49.254783,-123.170074,Vancouver,V,59,Urban
V6M0A1,V6M,49.232313,-123.161496,Vancouver,V,59,Urban
V6N1A0,V6N,49.229988,-123.188805,Vancouver,V,59,Urban
V6P0A1,V6P,49.222135,-123.156304,Vancouver,V,59,Urban
V6R0A2,V6R,49.2655497,-123.1931537,Vancouver,V,59,Urban
V6S0A1,V6S,49.237565,-123.196898,Vancouver,V,59,Urban
V6T0A1,V6T,49.273303,-123.247076,University Endowment Area,V,59,Urban
V6V0A1,V6V,49.17119365,-122.9776473,Richmond,V,59,Urban
V6W0A1,V6W,49.149792,-123.034615,Richmond,V,59,Urban
V6X0A1,V6X,49.173631,-123.134881,Richmond,V,59,Urban
V6Y0A1,V6Y,49.16712219,-123.1166109,Richmond,V,59,Urban
V6Z0A1,V6Z,49.276415,-123.12748,Vancouver,V,59,Urban
V7A0A1,V7A,49.117185,-123.103192,Richmond,V,59,Urban
V7B0A1,V7B,49.186285,-123.144545,Richmond,V,59,Urban
V7C0A1,V7C,49.154265,-123.164942,Richmond,V,59,Urban
V7E0A1,V7E,49.124052,-123.158951,Richmond,V,59,Urban
V7G0A3,V7G,49.3597779,-122.9357088,North Vancouver,V,59,Urban
V7H0A1,V7H,49.307558,-123.007711,North Vancouver,V,59,Urban
V7J1A0,V7J,49.326354,-123.026585,North Vancouver,V,59,Urban
V7K0A1,V7K,49.35178667,-123.0375623,North Vancouver,V,59,Urban
V7L0A1,V7L,49.309259,-123.057233,North Vancouver,V,59,Urban
V7M0A1,V7M,49.324296,-123.08924,North Vancouver,V,59,Urban
V7N0A1,V7N,49.335673,-123.074501,North Vancouver,V,59,Urban
V7P0A1,V7P,49.320319,-123.107505,North Vancouver,V,59,Urban
V7R1A0,V7R,49.350537,-123.099831,North Vancouver,V,59,Urban
V7S0A1,V7S,49.350412,-123.185959,West Vancouver,V,59,Urban
V7T0A1,V7T,49.327237,-123.132171,West Vancouver,V,59,Urban
V7V0A2,V7V,49.333631,-123.182443,West Vancouver,V,59,Urban
V7W1A1,V7W,49.346187,-123.237785,West Vancouver,V,59,Urban
V7X1A0,V7X,49.293586,-123.11615,Vancouver,V,59,Urban
V7Y1A0,V7Y,49.281626,-123.124712,Vancouver,V,59,Urban
V8A0A1,V8A,49.854794,-124.535447,Powell River,V,59,Urban
V8B0A1,V8B,49.744969,-123.143928,Squamish,V,59,Urban
V8C0V2,V8C,54.047444,-128.642617,Kitimat,V,59,Urban
V8G0A1,V8G,54.517019,-128.597892,Terrace,V,59,Urban
V8J0A3,V8J,54.3163561,-130.3042046,,V,59,Urban
V8K0A1,V8K,48.862875,-123.509612,Salt Spring Island,V,59,Urban
V8L0A1,V8L,48.650074,-123.402104,Sidney,V,59,Urban
V8M0A1,V8M,48.600208,-123.416642,Saanichton,V,59,Urban
V8N0A3,V8N,48.4767571,-123.3251287,Saanich,V,59,Urban
V8P0A1,V8P,48.459084,-123.330256,Victoria,V,59,Urban
V8R0A1,V8R,48.43188,-123.32102,Oak Bay,V,59,Urban
V8S0A1,V8S,48.419589,-123.3284138,Victoria,V,59,Urban
V8T0A1,V8T,48.43991596,-123.3650068,Victoria,V,59,Urban
V8V0A1,V8V,48.415145,-123.356161,Victoria,V,59,Urban
V8W0A1,V8W,48.429308,-123.367254,Victoria,V,59,Urban
V8X0A1,V8X,48.49508,-123.385301,Victoria,V,59,Urban
V8Y0A1,V8Y,48.42804,-123.356467,Victoria,V,59,Urban
V8Z0A1,V8Z,48.482729,-123.389448,Victoria,V,59,Urban
V9A0A1,V9A,48.42801904,-123.3781893,Victoria,V,59,Urban
V9B0A1,V9B,48.47401,-123.502809,Victoria,V,59,Urban
V9C0A1,V9C,48.39796,-123.542282,Victoria,V,59,Urban
V9E1A1,V9E,48.46328,-123.453818,Victoria,V,59,Urban
V9G0A5,V9G,49.0307588,-123.8573363,,V,59,Urban
V9H0A1,V9H,49.963995,-125.235601,Campbell River,V,59,Urban
V9J1A1,V9J,49.86687,-125.124822,Black Creek,V,59,Urban
V9K0A1,V9K,49.359789,-124.512326,Qualicum Beach,V,59,Urban
V9L0A1,V9L,48.81019,-123.689958,Duncan,V,59,Urban
V9M0A1,V9M,49.6917402,-124.8959703,Lazo,V,59,Urban
V9N0A2,V9N,49.6683784,-125.031066,Courtenay,V,59,Urban
V9P0A5,V9P,49.2818399,-124.3026685,Parksville,V,59,Urban
V9R0A4,V9R,49.1641303,-123.9878155,Wellington,V,59,Urban
V9S0A1,V9S,49.1891873,-123.9812173,Nanaimo,V,59,Urban
V9T0B5,V9T,49.2127658,-124.0133669,Wellington,V,59,Urban
V9V0A6,V9V,49.240233,-124.0253416,Wellington,V,59,Urban
V9W0A6,V9W,50.0068477,-125.249639,,V,59,Urban
V9X0A1,V9X,49.0687667,-124.0511057,Nanaimo,V,59,Urban
V9Y0Y7,V9Y,49.228468,-124.9307556,Alberni-Clayoquot,V,59,Urban
X0B0C0,X0B,69.148255,-105.174149,Cambridge Bay,X,61,Rural
X0C0A0,X0C,64.332324,-96.062166,Baker Lake,X,61,Rural
X0E0A0,X0E,68.221032,-135.00437,Aklavik,X,61,Rural
X0G0A0,X0G,60.235895,-123.462936,Fort Liard,X,61,Rural
X0H0A0,X0H,63.208562,-124.391661,Tungsten,X,61,Rural
X1A0A1,X1A,62.440341,-114.41747,Yellowknife,X,61,Urban
X0A0A0,X0A,73.005278,-85.033056,Arctic Bay,X,62,Rural
Y0A1A0,Y0A,60.173378,-129.015941,Swift River,Y,60,Rural
Y0B1A0,Y0B,62.383752,-140.875303,Quill Creek,Y,60,Rural
Y1A0A0,Y1A,60.710848,-135.06663,Whitehorse,Y,60,Urban